{"type": "FeatureCollection", "name": "minnesota_state", "features": [{"type": "Feature", "properties": {"STATEFP": "27", "STUSPS": "MN", "NAME": "State of Minnesota", "source": "TIGER/2018/States (simplified maxError=200.0m via GEE)", "note": "Local convenience polygon; regional norm stats use full GEE state geometry."}, "geometry": {"type": "GeometryCollection", "geometries": [{"type": "LineString", "coordinates": [[-96.74153051466953, 46.539841289114285], [-96.74278728118902, 46.540155476491336]]}, {"type": "LineString", "coordinates": [[-96.73973522832569, 46.50110696144319], [-96.74085731047433, 46.50025423125823]]}, {"type": "LineString", "coordinates": [[-96.7038734622605, 46.4273188647539], [-96.70477112094356, 46.426600742436]]}, {"type": "LineString", "coordinates": [[-96.58228464636866, 46.173818017837434], [-96.58295785833393, 46.17278575572003]]}, {"type": "Polygon", "coordinates": [[[-96.79615352662462, 46.667534192610916], [-96.80014813250885, 46.66870119820651], [-96.80185367761167, 46.66717513513587], [-96.79615352662462, 46.667534192610916]]]}, {"type": "Polygon", "coordinates": [[[-96.74049821229407, 46.52031702695425], [-96.74498654492083, 46.51995793533282], [-96.74233841024424, 46.51919496152453], [-96.74049821229407, 46.52031702695425]]]}, {"type": "Polygon", "coordinates": [[[-96.74085731047433, 46.50025423125823], [-96.74224864195331, 46.500299102378634], [-96.74148564417948, 46.49922187272449], [-96.74085731047433, 46.50025423125823]]]}, {"type": "Polygon", "coordinates": [[[-96.74278728118902, 46.540155476491336], [-96.74610859035342, 46.54199565509757], [-96.75010323801928, 46.540828716952724], [-96.74642278681107, 46.53885380842916], [-96.74278728118902, 46.540155476491336]]]}, {"type": "Polygon", "coordinates": [[[-96.71419658373549, 46.448728205475426], [-96.72169215310234, 46.44881794420763], [-96.7181912071626, 46.44608009797221], [-96.71536357584112, 46.446753346258724], [-96.71419658373549, 46.448728205475426]]]}, {"type": "Polygon", "coordinates": [[[-97.23762556693534, 48.98512773023056], [-97.23847834874988, 48.96632164736234], [-97.2277511729233, 48.96282074342738], [-97.23398994597319, 48.94742579657732], [-97.226988200089, 48.94616903266651], [-97.2247888758574, 48.933960751164626], [-97.21989666533298, 48.932434756317825], [-97.21536343478468, 48.932434735278], [-97.21576738256147, 48.92888898296996], [-97.21971707668678, 48.9217974294087], [-97.2146453106272, 48.91856580426261], [-97.21060578864758, 48.91555864974869], [-97.21208694576701, 48.90667176150603], [-97.20477099378896, 48.901734588197364], [-97.19135087248972, 48.89693207571559], [-97.19018388373125, 48.89293744444891], [-97.19610851088754, 48.891546063738744], [-97.20082120271285, 48.89248859597767], [-97.19956445527106, 48.88966099930492], [-97.19790384608301, 48.88571125163125], [-97.19969914424584, 48.88167177291927], [-97.18977992013349, 48.8766447916348], [-97.17891816842466, 48.87682435168697], [-97.17855908232845, 48.87386205497706], [-97.19058782810676, 48.864526313564625], [-97.1866830093515, 48.86313494469749], [-97.1801299789618, 48.8634939871216], [-97.17712280225646, 48.85510081484567], [-97.17308336974315, 48.85079203066618], [-97.17766145023832, 48.848188839032545], [-97.18214982157033, 48.84787465336512], [-97.18147648166061, 48.84603438392876], [-97.17577633528562, 48.84482257054065], [-97.17416054343913, 48.83732701465592], [-97.17936699112249, 48.83494820560877], [-97.18398997145623, 48.83409545504123], [-97.18354117131885, 48.8298315755476], [-97.17784098269546, 48.82426603296608], [-97.18156628793741, 48.8187453321922], [-97.19031850083958, 48.81542404169348], [-97.18668301079056, 48.81434680538639], [-97.17950162549238, 48.814840518988134], [-97.16913360162083, 48.8112947178539], [-97.1587655860801, 48.810935666530966], [-97.15881045700016, 48.80644737077735], [-97.18071355047854, 48.800208561388814], [-97.18057888799417, 48.79747066348945], [-97.17555196103633, 48.79778489551361], [-97.1681013172412, 48.80142044134978], [-97.1620421132901, 48.799535345306204], [-97.163612992415, 48.79612421118068], [-97.17299354850832, 48.79598957993506], [-97.17407082046378, 48.79396976377996], [-97.16581226546599, 48.79105241595091], [-97.15822693054993, 48.791187002806275], [-97.15741906284678, 48.787955409668676], [-97.15939396919637, 48.78382615085048], [-97.1520779547426, 48.78247966534656], [-97.14745494830264, 48.78144735475531], [-97.15077633554769, 48.77848505203987], [-97.1589899788587, 48.77574720208439], [-97.15692531494109, 48.77309903239046], [-97.1511354126931, 48.771169084297696], [-97.14552502694059, 48.76367359897589], [-97.15481580332705, 48.75716548286479], [-97.14996846154824, 48.750612571251494], [-97.13874762298808, 48.750477921305624], [-97.13632393673858, 48.7440147051654], [-97.14179971793128, 48.735711289533015], [-97.13452863802775, 48.734409698492826], [-97.12918749856625, 48.733556863094115], [-97.12968120629262, 48.729876420907836], [-97.13762558278718, 48.727318130457896], [-97.12339754890606, 48.71798235985491], [-97.11890925534088, 48.71129475043956], [-97.1099325756311, 48.70765926223217], [-97.11329884091296, 48.70537015158842], [-97.12030059937021, 48.70397882060677], [-97.1178769192442, 48.699625135325306], [-97.1055340015399, 48.68966104370753], [-97.09081229231764, 48.685217561736934], [-97.09157525695016, 48.682434793705696], [-97.10073145229319, 48.68288366266861], [-97.10109050670616, 48.6677130816682], [-97.10921443092057, 48.66376337024958], [-97.10396304116726, 48.66273105693307], [-97.09934011547406, 48.66210268385056], [-97.10050708021109, 48.658018320835254], [-97.10688051754576, 48.65119608926474], [-97.10943880429464, 48.64675260129034], [-97.1156327418851, 48.644687941582625], [-97.10921444518998, 48.63607038772733], [-97.11100972737097, 48.63117814483901], [-97.11688942295727, 48.6308639046973], [-97.12707802372712, 48.6339608639763], [-97.1312072054693, 48.63054971359412], [-97.11917852512116, 48.61964311453181], [-97.12173688790814, 48.61784776004499], [-97.1328679147113, 48.622874700438274], [-97.1352467688385, 48.62072032129514], [-97.12878356306761, 48.61524454296378], [-97.13232930399904, 48.61313503991627], [-97.14377460543761, 48.61475080009859], [-97.15041731375598, 48.61205785516519], [-97.14893619008794, 48.60860183374099], [-97.13475304891321, 48.608108122844335], [-97.13659327505488, 48.60523557431134], [-97.14606360839281, 48.59774003356495], [-97.15216772511903, 48.59769518880844], [-97.15400792505088, 48.59522655884383], [-97.14951958453125, 48.593835179335514], [-97.1434155291555, 48.59347617182451], [-97.14260762747179, 48.584768779994945], [-97.14588405527135, 48.58117813034111], [-97.15881045333421, 48.58221041696864], [-97.16051603287062, 48.57947259246666], [-97.15364891032826, 48.57794654215442], [-97.14803849237299, 48.57529843711097], [-97.1504622006237, 48.568565932531996], [-97.15881048015821, 48.56632174012476], [-97.17451964985155, 48.563673625161506], [-97.1741156176029, 48.56008296312281], [-97.16186248926599, 48.557030927402245], [-97.1411264653243, 48.55640258305303], [-97.13811924882029, 48.55370958204666], [-97.14157527577711, 48.551285833304426], [-97.15840651464138, 48.5520937360824], [-97.16356807713895, 48.55406859343256], [-97.1662162146477, 48.55151027077363], [-97.1622664777524, 48.542937592712825], [-97.142517787832, 48.53656413434996], [-97.14215875412702, 48.53225536531757], [-97.15360405335863, 48.529517466825325], [-97.15405280201172, 48.521662914797815], [-97.14736525493694, 48.518790324917134], [-97.13075837798966, 48.52265034248245], [-97.12707796782266, 48.52063057395712], [-97.12936701379485, 48.51695014881516], [-97.13901696684154, 48.51165389766078], [-97.15028261049459, 48.511609029544786], [-97.14830774190973, 48.499984259893], [-97.13223957107448, 48.492398955709454], [-97.13152139948527, 48.48898783499124], [-97.13511207972306, 48.48773107948276], [-97.14153041921446, 48.492578545984315], [-97.143370657315, 48.491321812295205], [-97.13928625863741, 48.48629485058116], [-97.14561477512743, 48.482973453318024], [-97.16163811749679, 48.47983165915587], [-97.16222160630431, 48.47691422812325], [-97.15490557593466, 48.47489448713018], [-97.13461835649937, 48.47754261903757], [-97.1283796221981, 48.474714942847164], [-97.12891824517364, 48.47193221069508], [-97.13407980254183, 48.47175268327513], [-97.14323593295978, 48.47475987454609], [-97.14776916375264, 48.472066855267386], [-97.14556986171421, 48.4659178490414], [-97.14081228410387, 48.46300040271688], [-97.13062373536745, 48.46340441156553], [-97.12909773832773, 48.45747979412452], [-97.1307135349354, 48.45222843155589], [-97.1426524823624, 48.44589988022773], [-97.15014801392229, 48.442174606896], [-97.14907078247077, 48.43885321006984], [-97.13986972675399, 48.43916739103181], [-97.13143168768647, 48.44401475337468], [-97.12483380750436, 48.441905242795166], [-97.12429523938097, 48.43454444773449], [-97.12905282723587, 48.43104352111107], [-97.14126109485389, 48.433781372432506], [-97.14516597830618, 48.432569515590146], [-97.14381943126551, 48.42848518925845], [-97.12420545295316, 48.421842431759366], [-97.12245502819565, 48.418296683281135], [-97.12604563539998, 48.416142238230485], [-97.13672784127817, 48.4215282487577], [-97.15279610609966, 48.41879037591153], [-97.15539929436514, 48.416725737793456], [-97.15328986345872, 48.413045329870656], [-97.14669200980214, 48.41394300423782], [-97.14211389821753, 48.41852107301689], [-97.13951063442106, 48.41816201908751], [-97.13627903849513, 48.41259645848281], [-97.1312970144253, 48.408916053248944], [-97.13340654071139, 48.40528049765619], [-97.1421587674119, 48.40034338479394], [-97.14817313357251, 48.3967527123683], [-97.16078535068523, 48.39554084143646], [-97.16307434494183, 48.391905262641366], [-97.15768842271927, 48.391142291326716], [-97.15607259609803, 48.385038165653164], [-97.14633294233356, 48.38140260775305], [-97.13623415605974, 48.383916097275964], [-97.13390027332336, 48.381088390972046], [-97.14099185084615, 48.379203340707086], [-97.13735628043943, 48.371752697035], [-97.1438642781835, 48.370316401357705], [-97.15364886147647, 48.37049596362045], [-97.15589307194438, 48.36443672533395], [-97.14530064112294, 48.35756957974743], [-97.14238316845476, 48.35393406210562], [-97.13618931367904, 48.352183575872836], [-97.13767047770338, 48.34904176126618], [-97.14103663764934, 48.34581012956358], [-97.13726649615168, 48.34383528871516], [-97.12837960290673, 48.3429824704785], [-97.12586612232468, 48.339706000917076], [-97.12896311352605, 48.3330184300423], [-97.14162019518045, 48.32866473353524], [-97.14108154664451, 48.32538829037454], [-97.12918748159657, 48.3281261438273], [-97.11751781988809, 48.325882011896134], [-97.11585713291453, 48.32282990275409], [-97.12743703105808, 48.319463628562865], [-97.13358607288339, 48.31847622526909], [-97.13776021054791, 48.30972398959191], [-97.13367582581022, 48.30896094679862], [-97.12586611142218, 48.3118335165963], [-97.12218567089454, 48.30869168694961], [-97.12671887656248, 48.30447264324082], [-97.11949269786433, 48.30088199221565], [-97.1126704137763, 48.29724645573558], [-97.11379253793785, 48.294239268192754], [-97.12133291549956, 48.29545113948622], [-97.12703312798679, 48.29908662723333], [-97.13807434728955, 48.290828121190195], [-97.13672788185434, 48.28728231072673], [-97.13223952677248, 48.28835953287621], [-97.12604568788122, 48.29181552715423], [-97.12214081576884, 48.2900651392704], [-97.11657530211677, 48.27965215143041], [-97.12137780012071, 48.27673476732518], [-97.12537245841624, 48.276285974632884], [-97.12425029845609, 48.27112440018529], [-97.13143166372616, 48.26995743225334], [-97.14036346022294, 48.27107950447085], [-97.1450312915861, 48.26874554607837], [-97.14386434299469, 48.265738376066196], [-97.12627011068044, 48.26439189745426], [-97.12312822998868, 48.26116023623828], [-97.13062373719958, 48.25896099987843], [-97.12447475081953, 48.25070244314558], [-97.12914264429737, 48.24944576945175], [-97.13452861010417, 48.249715049672645], [-97.14610851636543, 48.24518183683408], [-97.1459290024187, 48.24163605636857], [-97.13461840395252, 48.24024464051762], [-97.13583024282266, 48.236923315295165], [-97.14301156125812, 48.23607051063397], [-97.14359505701668, 48.23176172052372], [-97.12169201871146, 48.22691431622161], [-97.12227549661108, 48.223323670627714], [-97.13174584582472, 48.2264206133712], [-97.14081231499952, 48.226196200970364], [-97.15189844266024, 48.221034619121326], [-97.15176377534752, 48.21892511869205], [-97.14749987075079, 48.21865577061015], [-97.14058787360689, 48.22215666511293], [-97.12290388320812, 48.216501420543906], [-97.11792178610882, 48.21062165310836], [-97.11895411351556, 48.20783890339336], [-97.12366688505381, 48.207614528942685], [-97.13134189081593, 48.217174684921034], [-97.13897200686151, 48.21708484889168], [-97.13825395531516, 48.2130453698469], [-97.12923235976245, 48.20958940758609], [-97.13165609040249, 48.20712081271457], [-97.14009417589565, 48.20514595157538], [-97.14009413991405, 48.20177968246493], [-97.13565070999753, 48.19711180424472], [-97.14139573451078, 48.19334164559383], [-97.14974406931971, 48.18584608098355], [-97.14844241655317, 48.182435021545416], [-97.13955551619651, 48.1826593716615], [-97.13600971187729, 48.17830568998166], [-97.13897205305099, 48.17467018914694], [-97.14700619698759, 48.17296462173612], [-97.14314620974588, 48.16107056526787], [-97.13578537733257, 48.15994848644162], [-97.12411564676768, 48.162641485059254], [-97.12097386758408, 48.15954449592738], [-97.13053399908482, 48.154248313873886], [-97.14117135062867, 48.150163919424514], [-97.14664711336295, 48.14320700574054], [-97.14444778814921, 48.14105256395984], [-97.13538136102514, 48.143072350761116], [-97.12272430523616, 48.139571414492984], [-97.1241605376572, 48.13638474339595], [-97.13345143755971, 48.13710285885143], [-97.12900791256182, 48.1304601012427], [-97.120569888165, 48.11335958686207], [-97.12299360771759, 48.10649243677046], [-97.11693439781777, 48.10563968243138], [-97.11033650439335, 48.10523569080695], [-97.10741909381422, 48.099176451543634], [-97.10185361423643, 48.09590003106075], [-97.10320011159345, 48.09410465377685], [-97.10975300009656, 48.091636060961164], [-97.10127011946207, 48.08831475405274], [-97.09987872533975, 48.07987663193151], [-97.10450170787887, 48.072426034372086], [-97.09714081915072, 48.07036140368796], [-97.08412469905709, 48.05640269324872], [-97.07402589527307, 48.05119625701598], [-97.07016598206286, 48.03607061334317], [-97.06994153071022, 48.024670198251876], [-97.07178174833192, 48.01807241725059], [-97.06284996387105, 48.01380845848216], [-97.06657535010602, 48.01035245312949], [-97.06289483281468, 47.99639372215053], [-97.05337960533939, 47.991321950478955], [-97.05890024803622, 47.972964686332794], [-97.0580025659594, 47.96874563853944], [-97.06163812045068, 47.96394311677291], [-97.05275125893594, 47.95806342565744], [-97.05521983198848, 47.94724654303186], [-97.04597383091377, 47.941321932376404], [-97.03614444082835, 47.93939199192892], [-97.03641373987416, 47.93077436955771], [-97.01756277206633, 47.91901496368193], [-97.02366686057488, 47.91618730452469], [-97.01563279249336, 47.91062182255075], [-97.01657529097162, 47.905909027142805], [-97.02169206837895, 47.907345330305695], [-97.02510319542043, 47.90801858155565], [-97.02025575612883, 47.900163980569076], [-97.02514807026611, 47.89607963462875], [-97.01877458902503, 47.890558966987605], [-97.02532757598563, 47.88629504723437], [-97.02303854714036, 47.881896454522646], [-97.01801161660111, 47.87830581389361], [-97.02303854608228, 47.873907277640555], [-97.0140618457931, 47.87116939459595], [-97.00315526181417, 47.86919450905936], [-97.00162916823798, 47.866725968413334], [-97.00589310329237, 47.86484085561576], [-96.99763456379722, 47.85779415498751], [-96.99678176087806, 47.84800960306455], [-96.99404386932095, 47.84549611135262], [-96.99835272117419, 47.84235426668881], [-96.99471719035267, 47.84239919758111], [-96.99337067150607, 47.84284798968244], [-96.99346041382475, 47.838045515031794], [-96.9865035553872, 47.83737224608982], [-96.98156639098244, 47.82956260279164], [-96.98659324861528, 47.825298657351425], [-96.97496853285492, 47.82453561478602], [-96.97546220637146, 47.82211194528245], [-96.98026472730274, 47.82224656283101], [-96.97842457053038, 47.810172985060866], [-96.98381055506354, 47.809275315744905], [-96.99081230734255, 47.80958952936651], [-96.99076741451064, 47.80752484236097], [-96.97285901014817, 47.803171210218814], [-96.97263456267497, 47.801869581909365], [-96.97653941878191, 47.801241198399836], [-96.97685365359375, 47.79818914562535], [-96.97070462384417, 47.79859308782598], [-96.9663958144992, 47.799535682815886], [-96.96379254035595, 47.79477801296279], [-96.95719477160264, 47.791322039309144], [-96.96069559975446, 47.7891227413764], [-96.96531858719504, 47.78387140020182], [-96.96132396224401, 47.783422523739084], [-96.957643535702, 47.78539743949603], [-96.9584065889752, 47.78010116457284], [-96.9526166371407, 47.77974208417643], [-96.95643174253397, 47.77624119846625], [-96.95418756757253, 47.774535649575284], [-96.94633294664467, 47.77484986178513], [-96.94135091057171, 47.769867779905596], [-96.93475307509227, 47.76690547504187], [-96.93847836774411, 47.76210299664541], [-96.93385545151115, 47.757659548349054], [-96.9287836396499, 47.75546027761005], [-96.93461838965655, 47.75537047040382], [-96.93937609077811, 47.75595395780102], [-96.93722166267095, 47.753620025287546], [-96.92896312678891, 47.75011913417828], [-96.93013006657054, 47.74208503295889], [-96.93295778118673, 47.73862899848272], [-96.92474410257176, 47.727812132020134], [-96.92128808898882, 47.72543335505362], [-96.9185053211756, 47.7243561136092], [-96.92429529173948, 47.71995757260696], [-96.93093797604492, 47.716995244061415], [-96.9295466619844, 47.714436914745065], [-96.92501339195897, 47.71623229792085], [-96.92164714683557, 47.7178480952284], [-96.91926830046506, 47.71407783196357], [-96.9195825540905, 47.70999348963183], [-96.91199723462648, 47.707659572003124], [-96.91536351899973, 47.70339564289872], [-96.92101884543702, 47.70101682798919], [-96.91787694454224, 47.69922149339372], [-96.91222171671681, 47.701600296355934], [-96.90755384140644, 47.693431524668966], [-96.90993262383749, 47.690155049812134], [-96.90755382491754, 47.68849435544443], [-96.90239223266563, 47.691681082969026], [-96.89907087982738, 47.68791088324599], [-96.8955700189447, 47.67368291217468], [-96.88506732775532, 47.67336870789092], [-96.88978006289409, 47.66914969273845], [-96.88529168244501, 47.66268649045683], [-96.88717683677163, 47.6569863327823], [-96.88578541128628, 47.652049161111115], [-96.88246404068778, 47.65007428193683], [-96.88304749468705, 47.64136693345518], [-96.88820909548792, 47.638898369571486], [-96.88188052388732, 47.6314477029911], [-96.87878361511214, 47.62870983151049], [-96.87438510480396, 47.62781217025409], [-96.87627013428778, 47.626600372143315], [-96.88057898646595, 47.62561290936009], [-96.87582135703532, 47.6230545320463], [-96.8797261561674, 47.619329206861266], [-96.87092903640651, 47.61798277165153], [-96.87393626832018, 47.613718835588394], [-96.86823604193361, 47.61439211052488], [-96.86302961211548, 47.61237234601931], [-96.85647664110404, 47.61021793628995], [-96.85562386338826, 47.60487685631166], [-96.85661129855096, 47.60155546972038], [-96.85100086669833, 47.598503406755626], [-96.85378361051178, 47.59598992287197], [-96.8585412368597, 47.596124615963554], [-96.85539942127822, 47.593566232949854], [-96.84996855695248, 47.591277182325115], [-96.85441201260907, 47.578171295901114], [-96.86047121522797, 47.5750294226665], [-96.85149462610742, 47.56946390344331], [-96.8562970720845, 47.567219726282985], [-96.86572259847217, 47.569643462274186], [-96.8688644105468, 47.56663628941132], [-96.86244613522356, 47.562506965027076], [-96.84776931241326, 47.566456755790796], [-96.85014809762048, 47.56309047500585], [-96.8572396728482, 47.56008331172331], [-96.86159328995261, 47.5598588730666], [-96.85723963501185, 47.55519099443725], [-96.85001343621309, 47.553575246858074], [-96.85575846862818, 47.54836879477754], [-96.86047123251063, 47.54652855763749], [-96.84669209402074, 47.54132205227486], [-96.84597396598554, 47.53791092204336], [-96.85037250865, 47.53800073721945], [-96.85629713187728, 47.54226461980334], [-96.8634335323776, 47.54024486896618], [-96.85961843703397, 47.53710306476697], [-96.85360413633005, 47.53786605429314], [-96.86065080839833, 47.529517741936985], [-96.87097396987357, 47.52794684926407], [-96.86635093809537, 47.52381759329843], [-96.86172800284245, 47.51587326797514], [-96.85284112946506, 47.514571669671625], [-96.84395419957748, 47.516815789268975], [-96.84193441563473, 47.515244914308354], [-96.84516605493852, 47.51232750987336], [-96.85261663815372, 47.51309047050733], [-96.85306548307886, 47.51044237423337], [-96.84323609615213, 47.50990380616468], [-96.84372976434925, 47.50739033483541], [-96.84987876714892, 47.50676198032594], [-96.85234735605448, 47.50761470868967], [-96.85275130471246, 47.50070273987159], [-96.84884650871655, 47.49796482744448], [-96.86150353017804, 47.49204027269471], [-96.86482492692228, 47.49199533192626], [-96.8624461138976, 47.489526772674964], [-96.85221270443823, 47.48651962515533], [-96.85445690631822, 47.4833777956441], [-96.86276028935886, 47.48409592336713], [-96.8684156096619, 47.47749807943381], [-96.86433121556826, 47.477228762363275], [-96.85782311215571, 47.48113357269781], [-96.85234732135652, 47.47965243045466], [-96.85378358488, 47.475927100104094], [-96.86087521005166, 47.4729648623494], [-96.85741914737378, 47.464167709677874], [-96.85382853998804, 47.460621947914504], [-96.86002240212532, 47.45824309236411], [-96.86347845675198, 47.4574352056084], [-96.86109958711664, 47.45537055195145], [-96.85477109656765, 47.45501149823362], [-96.85566873418384, 47.452722487436475], [-96.85925942727843, 47.451600398801304], [-96.85773332960653, 47.44791998107918], [-96.85921451861542, 47.445271869790595], [-96.85616248821974, 47.4388086344751], [-96.86267052369921, 47.437013292201875], [-96.85997751060228, 47.43432033170349], [-96.85337965689907, 47.43288403637083], [-96.85328992508997, 47.43153759614827], [-96.8583168067795, 47.43198639287803], [-96.86473513930494, 47.42772247983142], [-96.86051613595754, 47.426869690297075], [-96.8547710877606, 47.42628620288594], [-96.85652148561408, 47.42377277388464], [-96.87146762996866, 47.419643528814966], [-96.86904394216755, 47.41820723962952], [-96.8647800219089, 47.418566268946265], [-96.86136886386063, 47.4178481371791], [-96.86074051175927, 47.41349447955087], [-96.856521537949, 47.409589598429584], [-96.84350536987982, 47.41205818774747], [-96.84224864239623, 47.41030778246195], [-96.85252690224601, 47.406761971855445], [-96.84853231361281, 47.404024112943944], [-96.83946589133738, 47.39854831382285], [-96.84871183302418, 47.39495768813731], [-96.84763466021649, 47.392982793745176], [-96.84305650395059, 47.39221979451467], [-96.84094704388848, 47.39329701292942], [-96.83785004723627, 47.38844961255117], [-96.84215886855857, 47.38598098662801], [-96.83820916180855, 47.38212109256113], [-96.84323608624177, 47.38081942754193], [-96.84848744051008, 47.382659660010525], [-96.84974413918356, 47.38063992012894], [-96.8434155864919, 47.37610669690695], [-96.84857714428492, 47.37480510255435], [-96.85436713782383, 47.374401119072715], [-96.85153943833949, 47.37170812127552], [-96.84646769116627, 47.3702718604893], [-96.83915164693072, 47.373548365396964], [-96.83668305592309, 47.37224672499857], [-96.84426840933222, 47.367982828974085], [-96.85598294351759, 47.369329337784514], [-96.85809242724115, 47.36713005775253], [-96.84871184233057, 47.36502055723392], [-96.84857716208415, 47.36237239063512], [-96.85225757566924, 47.35851246675293], [-96.84574952373274, 47.356402938913774], [-96.8373115018305, 47.35546039229237], [-96.83870285063884, 47.35339574270908], [-96.84480700630186, 47.354069011765354], [-96.84350536731704, 47.35034367710776], [-96.84741021252523, 47.34904207715571], [-96.83915167719691, 47.34055912470737], [-96.8314766004267, 47.339751219984876], [-96.83259868726897, 47.335173111410555], [-96.83708704561172, 47.33185178788303], [-96.84381953097433, 47.33176197701897], [-96.84619833561484, 47.329024100860366], [-96.8426077181313, 47.3265555693717], [-96.83722171405165, 47.329607619376894], [-96.83340665186017, 47.33086434083104], [-96.82887337913452, 47.327408298303446], [-96.83381058991189, 47.32574764949609], [-96.83708708783234, 47.32404205019508], [-96.83484291388991, 47.31964348521881], [-96.84660232294159, 47.31663634148596], [-96.84565973183706, 47.3147063979665], [-96.84233837024988, 47.31223779193692], [-96.8435951728552, 47.30923062846298], [-96.84067768678098, 47.30891644277954], [-96.83681774020928, 47.31151961814649], [-96.83062383248782, 47.305729684447996], [-96.83560593374642, 47.30124135326349], [-96.8440439776685, 47.291770972235526], [-96.84009426879254, 47.27556814877109], [-96.84328097412762, 47.27341372915118], [-96.8475896975299, 47.271528631089296], [-96.84346048658243, 47.268566370298814], [-96.83569569719984, 47.268611209871], [-96.83493261553564, 47.26573868966565], [-96.84144068759849, 47.2649756510826], [-96.8459739220046, 47.264571703094866], [-96.84709601530032, 47.26120550025865], [-96.83609959307209, 47.26264177035221], [-96.83623425062649, 47.25914084412204], [-96.84516601362297, 47.25855735044499], [-96.84305656374907, 47.257345506818204], [-96.83870288830623, 47.25667228287888], [-96.84440299420062, 47.25115163101122], [-96.84157539849629, 47.24944602380697], [-96.83838866969363, 47.253036721549684], [-96.83214989012792, 47.24702236060033], [-96.84359514292184, 47.24114265398393], [-96.84193447202908, 47.238763839342916], [-96.83713193250684, 47.242534038092444], [-96.82869386242868, 47.23351250367224], [-96.83084831443459, 47.23126832769628], [-96.83793980599239, 47.234903863266055], [-96.84247302279854, 47.23207624073234], [-96.83986982391767, 47.229069066027584], [-96.83340660928856, 47.22884465325264], [-96.83206008909352, 47.225927224204135], [-96.84516606994386, 47.22170818353902], [-96.84417864745306, 47.218027767312016], [-96.84036352740567, 47.218790746236714], [-96.8378949259037, 47.2230097782116], [-96.83309247128913, 47.220855405544405], [-96.83681771774346, 47.2153347571198], [-96.8302648024155, 47.21093617051764], [-96.83336171387336, 47.20873689014977], [-96.83713188560125, 47.207210852617216], [-96.8272576393838, 47.20177999418574], [-96.82891828617689, 47.20007442433484], [-96.8332270729207, 47.20375484480642], [-96.84485182825124, 47.193656109145465], [-96.840991897114, 47.19082844766731], [-96.83995956931551, 47.19338680947984], [-96.83969031178921, 47.1961696181394], [-96.82730246903908, 47.192040355900225], [-96.8265844075105, 47.18885364658016], [-96.83574052785222, 47.185981074354345], [-96.83407986632756, 47.183512511453664], [-96.82241017469849, 47.18539760629394], [-96.82249996821054, 47.18252511074643], [-96.82761670588043, 47.181762040936725], [-96.8243402196309, 47.17853047968508], [-96.82963644211154, 47.17745328974675], [-96.83345147559415, 47.17651071142068], [-96.82869390574716, 47.17395238659224], [-96.82321811754537, 47.17390745292042], [-96.8243850939948, 47.16641194323356], [-96.81895423600321, 47.16497567639715], [-96.82236534706722, 47.161564607579294], [-96.83179079301492, 47.16003858653904], [-96.83107271425652, 47.15833300985586], [-96.82236536677817, 47.15761484133538], [-96.8252378798934, 47.154832070457545], [-96.83403502087019, 47.155954140205345], [-96.83515710839353, 47.15658253599303], [-96.83681774142195, 47.15555021208733], [-96.83650360323387, 47.153126521431695], [-96.84121627787565, 47.15209417579038], [-96.83672796123167, 47.148548438777894], [-96.83210504531274, 47.14967051621954], [-96.82905294831454, 47.14527195358506], [-96.83466336429665, 47.143790823912084], [-96.8282899447022, 47.13894341191], [-96.82644973015431, 47.13387162546003], [-96.83075853204745, 47.129697469788155], [-96.82635989925824, 47.12866510166363], [-96.82187157709807, 47.130864383866935], [-96.82070465370417, 47.13005651875627], [-96.82478906878401, 47.12498470583917], [-96.82582135660678, 47.12309960150989], [-96.83668310174309, 47.123458676233305], [-96.83677284808407, 47.12148378044798], [-96.8277064462538, 47.12022704685441], [-96.82057002083997, 47.114571758254456], [-96.82267950286297, 47.10967949094165], [-96.82025581455571, 47.10797394454265], [-96.81657538763926, 47.109006265611946], [-96.81679981523973, 47.10362028169923], [-96.82056997761843, 47.10142094563115], [-96.82048026287637, 47.09931143960061], [-96.81711397044862, 47.09715706837153], [-96.81796675624707, 47.09141202678381], [-96.82631507964315, 47.08961668257273], [-96.82416069589345, 47.08840479558292], [-96.81949282292165, 47.089751351963166], [-96.81572264725739, 47.08732761606083], [-96.8203006633208, 47.08283928763862], [-96.81572258016104, 47.0798769870379], [-96.81922346606403, 47.078216307325654], [-96.8290977906616, 47.07480521367853], [-96.82739223484025, 47.0726058861262], [-96.8228141961176, 47.07619656889566], [-96.81962744719493, 47.07534377145823], [-96.82070468503134, 47.07314448635503], [-96.82456464350254, 47.071528719443904], [-96.8219164558781, 47.064122942365046], [-96.81971724329534, 47.06174417440692], [-96.82438506932968, 47.06134015947303], [-96.83026478772697, 47.06098111060063], [-96.82743710915484, 47.05914089203387], [-96.8216471712111, 47.0590062371322], [-96.82510321375423, 47.055729788652414], [-96.81769746942601, 47.05231865408151], [-96.82250002423993, 47.048054731815945], [-96.82658438341535, 47.04693267223121], [-96.82685370488132, 47.04522710451688], [-96.81859517486323, 47.04756103815585], [-96.81783208051027, 47.04527195894212], [-96.82285904857518, 47.03764179868323], [-96.82039050861617, 47.035577189741296], [-96.81437606114987, 47.03988596112132], [-96.81298469138055, 47.03777644693499], [-96.8176974560309, 47.03315352616675], [-96.82658432792451, 47.03292904584596], [-96.82734734175486, 47.03126840693416], [-96.82514812569201, 47.03005651812013], [-96.82048018665782, 47.03032582612693], [-96.81478007802797, 47.02440127546366], [-96.82739226600556, 47.022920111269165], [-96.8312971308993, 47.01829715465347], [-96.83439409273129, 47.016726216902924], [-96.83228450885082, 47.01520016484349], [-96.83399006050969, 47.00976929314502], [-96.83879260696825, 47.008018858233925], [-96.83811934537187, 47.00604398192653], [-96.83376566051327, 47.006492795263405], [-96.83241916859684, 47.00415887387661], [-96.82936715190532, 47.00528098533364], [-96.82635993390147, 47.001735175494645], [-96.8221409463734, 47.003889605687796], [-96.8209290848748, 47.00299194246098], [-96.82317324200662, 46.99998473514551], [-96.81935814537256, 46.997740575251456], [-96.82425041848457, 46.996887826430765], [-96.82357719185678, 46.992175082319555], [-96.82254487736061, 46.99015533148104], [-96.82635995765295, 46.98791111403342], [-96.8216920704024, 46.98378184013472], [-96.8204802404803, 46.97597214610318], [-96.82308343658717, 46.97058617413591], [-96.81747307907139, 46.967040383453536], [-96.81280514639178, 46.96533482486369], [-96.80845148536463, 46.96407813830328], [-96.80580335874514, 46.967668782028895], [-96.80158439700617, 46.964212746522406], [-96.80122533438454, 46.968342038727094], [-96.79539050917086, 46.9661427613666], [-96.79992365829385, 46.959230743097436], [-96.80369391818478, 46.95739046358179], [-96.7990709113551, 46.952677738672286], [-96.80041742299493, 46.948683138973216], [-96.80414268157706, 46.94693269201953], [-96.79880161571633, 46.94419483367437], [-96.79408888461316, 46.9469326657008], [-96.79135101434348, 46.943611312202286], [-96.79188956227279, 46.93952693883273], [-96.79049819638712, 46.936205608380625], [-96.79108165677577, 46.927318661536006], [-96.7861894148402, 46.93005654889014], [-96.78551615709398, 46.924715477913715], [-96.78273337398696, 46.925164310348876], [-96.77882853168305, 46.92812656064038], [-96.77784109002148, 46.92570291377853], [-96.7748787894817, 46.9283061116721], [-96.77438510176613, 46.93081961803427], [-96.76168312591767, 46.93454488731499], [-96.75952870776719, 46.931447974539395], [-96.75625226315549, 46.92902428253966], [-96.75961850549102, 46.92776750001015], [-96.7637477568395, 46.92924864162204], [-96.76486985619121, 46.92695962945392], [-96.75324511085225, 46.92458084777099], [-96.7526615518267, 46.92354848146465], [-96.75800269434863, 46.922920115482995], [-96.76293982309863, 46.92354853052934], [-96.76011224254749, 46.91874595701493], [-96.75450177969766, 46.91502068460821], [-96.75575855728397, 46.913629260734766], [-96.75984293737221, 46.91609786442141], [-96.7640619068385, 46.912148149960174], [-96.76509427631113, 46.905370750464726], [-96.7685502900596, 46.90555032860214], [-96.77124322614121, 46.906268398018476], [-96.77357723604996, 46.903126581500565], [-96.77025586653498, 46.90074775485205], [-96.776045801996, 46.8979650387824], [-96.77573158562726, 46.89414992142532], [-96.76976211529843, 46.893207406434854], [-96.77205114986684, 46.89055925236194], [-96.77465439896986, 46.88943718028833], [-96.7730386179053, 46.88436535893488], [-96.76823611817231, 46.88499377424504], [-96.76949283554434, 46.877722644343685], [-96.77178186430045, 46.87781243453738], [-96.77218580788215, 46.881492867745976], [-96.77730253567192, 46.87911403870568], [-96.78084833091714, 46.880056624806684], [-96.77815525349342, 46.87574780721683], [-96.77622526832413, 46.87386269045743], [-96.78093804700968, 46.87206735409462], [-96.78129708553088, 46.86627739718109], [-96.78399011208738, 46.863045816758685], [-96.78107269882894, 46.85932050859407], [-96.77600089657331, 46.854293585199876], [-96.78533665174733, 46.85514637046502], [-96.78354127679803, 46.851331273794685], [-96.77496860792115, 46.852498241780744], [-96.77330791185749, 46.850747775278535], [-96.78152152051355, 46.84697760966749], [-96.78013013477275, 46.84374599075232], [-96.77483394542244, 46.84033488210597], [-96.77707806380498, 46.838674230786566], [-96.78681773690491, 46.8411876377561], [-96.78708709056325, 46.83880885625077], [-96.78322707808425, 46.83692378058254], [-96.78443898456028, 46.83328820142793], [-96.78946586221221, 46.83333306744139], [-96.7931911588661, 46.83423073628075], [-96.79188958093107, 46.83185191901304], [-96.78013013966236, 46.82543363084267], [-96.78223971224857, 46.82520921206121], [-96.79157539854408, 46.82772264320708], [-96.79238330315317, 46.823054843668174], [-96.79911579696915, 46.8214390005091], [-96.80046232734803, 46.81362931194355], [-96.80207812077812, 46.810577241000374], [-96.79574951103832, 46.807749638621715], [-96.7998788277095, 46.80599916941936], [-96.80315526307496, 46.804473154324995], [-96.79696138010225, 46.80393450459342], [-96.79660235265911, 46.79922181081076], [-96.80189853642493, 46.79774065807509], [-96.79960948294438, 46.796259481343775], [-96.79462747095789, 46.795496511397154], [-96.79696139622907, 46.79244444182601], [-96.79512120039523, 46.78880883401111], [-96.7904533415926, 46.7894821243075], [-96.78991470891226, 46.78701356470614], [-96.78726659091402, 46.784769383327095], [-96.79673693663142, 46.77745340589478], [-96.79444789294193, 46.77583759907291], [-96.78484290248524, 46.77844084672162], [-96.78354125056445, 46.774984791068526], [-96.78650358900923, 46.77413206304107], [-96.79009424695512, 46.7744462498268], [-96.78802962214127, 46.769957884882594], [-96.77550716779604, 46.76717512742456], [-96.77878367533172, 46.76452700251572], [-96.78951079444133, 46.766008155248116], [-96.78385549141959, 46.76300098071538], [-96.77806551908712, 46.762148164646675], [-96.77909786794639, 46.76017336153289], [-96.78641378896558, 46.76187887873786], [-96.78654850096653, 46.759724514834154], [-96.78291292596047, 46.757839398310715], [-96.78475315625207, 46.756403111596676], [-96.78892726272036, 46.757704711965005], [-96.78870284443437, 46.755640126985654], [-96.78300266668155, 46.7545180603702], [-96.78268854524228, 46.75303689319404], [-96.7889721584451, 46.75267782697547], [-96.78883749295669, 46.75155571497351], [-96.78286806704908, 46.750433674883375], [-96.78331686337546, 46.74872812186368], [-96.78749100815126, 46.74899739089991], [-96.78430431977567, 46.74648390659358], [-96.78030971168631, 46.74500279320824], [-96.78255387935228, 46.74401530584861], [-96.78686267856565, 46.74419488078078], [-96.7873563497633, 46.74311768136182], [-96.7803545645457, 46.741412112737045], [-96.78259874655504, 46.74002072656906], [-96.78152151079932, 46.73719310434341], [-96.78309240502958, 46.735936320411746], [-96.78089321530494, 46.7345449920143], [-96.7843491840421, 46.73153782147716], [-96.78197039241769, 46.728844786682025], [-96.77963647667951, 46.72996684428333], [-96.77999551662387, 46.72574783859546], [-96.781790801869, 46.72529902526674], [-96.7799057878048, 46.72292022015428], [-96.79121630177963, 46.71888069117954], [-96.78955570060526, 46.717444469187605], [-96.7837657067833, 46.71780348513637], [-96.78210503342605, 46.71650186881947], [-96.78735635376009, 46.713404948225005], [-96.78358620399187, 46.711430043392795], [-96.78955560884432, 46.70954496198984], [-96.78448386987768, 46.70559523532913], [-96.79072258511435, 46.704024331647176], [-96.78982496851245, 46.702318772644055], [-96.78421454582531, 46.70146597047194], [-96.78785009423355, 46.69985015258031], [-96.78511221525127, 46.69388074053049], [-96.78731146360377, 46.69320748894928], [-96.78627917962316, 46.69132239025907], [-96.79063284872497, 46.68997585622995], [-96.78785009796496, 46.68782143301276], [-96.7839452498465, 46.686071021908454], [-96.78618940734529, 46.68476939580059], [-96.78785007591482, 46.68499379330374], [-96.78771542806231, 46.68230081483442], [-96.79408886429607, 46.68355752706625], [-96.79260772793477, 46.680774796969345], [-96.78758075504877, 46.67700462619355], [-96.79337074027907, 46.67754319544967], [-96.79516605294437, 46.67956293404452], [-96.79911580994961, 46.67853062816973], [-96.79826304141604, 46.67363837739027], [-96.79202421343592, 46.67368320816822], [-96.79220377414426, 46.67152882367856], [-96.79417862134098, 46.671573695599534], [-96.79453774101688, 46.66753424563756], [-96.79615352662462, 46.667534192610916], [-96.79615345270776, 46.66573889927146], [-96.79848747287706, 46.66421288456091], [-96.79763463377412, 46.66178919425626], [-96.80001349770289, 46.66111592045024], [-96.79718585147404, 46.6587370981884], [-96.79880157802745, 46.65559527049854], [-96.7989362439578, 46.65411412429282], [-96.79067773693892, 46.648054872906265], [-96.7941337282145, 46.646663501374505], [-96.79049819599815, 46.642130298217836], [-96.78596494033772, 46.64078375777956], [-96.79108169123352, 46.638360059448466], [-96.79296679476873, 46.6342756945745], [-96.7979487931708, 46.63055042555283], [-96.79727559348242, 46.62871014717811], [-96.79458260746942, 46.63126853218558], [-96.78906191128534, 46.62920389497863], [-96.78327196942155, 46.63171736985335], [-96.78206010808249, 46.63117874937843], [-96.78524686246276, 46.62947321785731], [-96.78834382735785, 46.62619672972767], [-96.79130605598236, 46.62520927278723], [-96.78596497647796, 46.62426671630946], [-96.77927741323643, 46.625703017340484], [-96.77797576740701, 46.62511948241923], [-96.78659336722068, 46.622112363705874], [-96.7860547096508, 46.618835852984446], [-96.78421456652238, 46.621887915179535], [-96.77851434494885, 46.61977839402314], [-96.77541741965922, 46.621169815012514], [-96.77492370850777, 46.617668848455246], [-96.78057900880792, 46.61730981265006], [-96.7810727454364, 46.61520031048949], [-96.77649459803675, 46.614168015838786], [-96.77182678810209, 46.61609797321664], [-96.77196139134433, 46.61421285496362], [-96.77465443424543, 46.61174429510401], [-96.77258974695835, 46.60923080451355], [-96.77860413013417, 46.60779453551526], [-96.77550717295912, 46.60546064610243], [-96.76922353625643, 46.60676224954383], [-96.76962748394892, 46.60474247096748], [-96.77227561852246, 46.60371019073441], [-96.77065975631601, 46.60173531048497], [-96.77205114708086, 46.59931164786543], [-96.77106373525, 46.5957209809047], [-96.76855026905008, 46.59845886787042], [-96.76536355162014, 46.597875363139], [-96.76397215618816, 46.59468863406001], [-96.75535456711579, 46.594688651429884], [-96.75795781448369, 46.59141217166098], [-96.76258076815758, 46.59177126551298], [-96.76172799260245, 46.58862942802979], [-96.75723969437192, 46.58687893391044], [-96.75234742987229, 46.588225482337705], [-96.75131512210326, 46.584679648581194], [-96.76114449104503, 46.58274969135074], [-96.75899011216029, 46.58171734139377], [-96.74835280410693, 46.583288298374335], [-96.74839763207046, 46.5805952689817], [-96.75239228561617, 46.581762264900526], [-96.75450182269643, 46.578081841533], [-96.7574641085572, 46.57763298125741], [-96.75504040385381, 46.57462578632595], [-96.75032768322983, 46.576286507138576], [-96.74615348682678, 46.574580918933854], [-96.74956465652694, 46.57363840896903], [-96.75284111236358, 46.57215724148191], [-96.75073159558144, 46.57099029560322], [-96.74592909293217, 46.57112489558277], [-96.74588418496207, 46.569060307669154], [-96.74664725453748, 46.567130268561485], [-96.74323612188272, 46.56650194622194], [-96.74179979328875, 46.56362937473937], [-96.74615353266924, 46.56475149039333], [-96.74718581833278, 46.562372638901834], [-96.75243719132699, 46.56223800427349], [-96.74687166376177, 46.55873714812556], [-96.75423249290365, 46.557390600297204], [-96.7510457563176, 46.555640167488946], [-96.74583936953947, 46.555774840175374], [-96.74916064959534, 46.549536051047085], [-96.7444030662204, 46.550299104558896], [-96.74063286994819, 46.54693279606813], [-96.74126123752795, 46.54531703387088], [-96.74480703846649, 46.54827930645703], [-96.75001351664962, 46.54495798838895], [-96.74767957725206, 46.54352167599924], [-96.73969028192892, 46.54388077894982], [-96.74058794623261, 46.54096334358804], [-96.74153051466953, 46.539841289114285], [-96.73843357912672, 46.538988467461635], [-96.74260774119216, 46.53786639903693], [-96.73780525152351, 46.535038721324646], [-96.74462746926889, 46.53548758979237], [-96.74601886623282, 46.53454500345049], [-96.74283211899045, 46.532570186728], [-96.7432361054933, 46.52686998606882], [-96.74539050480168, 46.52547861196873], [-96.73713194985667, 46.52502976988153], [-96.73726664066014, 46.522112345019806], [-96.74036357688456, 46.52161865944192], [-96.74049821229407, 46.52031702695425], [-96.73744613849982, 46.517040565822136], [-96.73596500168875, 46.513135726895364], [-96.73470825289736, 46.510981285097145], [-96.7404084235133, 46.510891564359255], [-96.7337657228327, 46.50586463719062], [-96.73461848570359, 46.505101603932566], [-96.73973522832569, 46.50110696144319], [-96.73654848810483, 46.500343988241085], [-96.7381642937364, 46.49774070213088], [-96.73340668369082, 46.49670844824291], [-96.73443892790051, 46.49428470294936], [-96.73439407920209, 46.49230983141105], [-96.73695247358813, 46.49172636117322], [-96.73457364883696, 46.48818062525503], [-96.73928634403548, 46.48750732534318], [-96.73879266140862, 46.48557733280485], [-96.73264363673826, 46.48346781854898], [-96.73888241831399, 46.4792039743149], [-96.7355610049977, 46.477722759335485], [-96.7347980032139, 46.480595298127376], [-96.73282320314632, 46.4787102105319], [-96.726808854003, 46.476286543340734], [-96.72671901383326, 46.471887960056804], [-96.7217370297172, 46.47076589405398], [-96.71994170638345, 46.473369098670695], [-96.71415173246747, 46.47166353618878], [-96.71697937665486, 46.47072098921846], [-96.72249998219606, 46.46915008294239], [-96.72245513506572, 46.465828738598255], [-96.72025582561106, 46.466098034706555], [-96.7181463459354, 46.4678035519385], [-96.71302965137386, 46.46636734093072], [-96.71828096554631, 46.46143017935302], [-96.71159337418334, 46.459545022712405], [-96.7120871132164, 46.45586462992954], [-96.71513916432458, 46.45559534074493], [-96.71688962696471, 46.45581976012281], [-96.71671006505348, 46.45299210255543], [-96.71293990111442, 46.451017223225925], [-96.71419658373549, 46.448728205475426], [-96.71127920472138, 46.446708416330715], [-96.71635100101504, 46.444643774043286], [-96.71271547652977, 46.44109805293814], [-96.72070469973654, 46.441142916548166], [-96.72155747935257, 46.43957196918256], [-96.71899909020459, 46.4399310978743], [-96.7159919213867, 46.43409621508329], [-96.71383757888437, 46.435128579654965], [-96.7152289149151, 46.43728297161922], [-96.71235636183155, 46.43737273287031], [-96.7110548243474, 46.43562228972405], [-96.70571366494897, 46.43741759712945], [-96.70459158210679, 46.43818064345014], [-96.70382858347196, 46.435936426162186], [-96.70719479023438, 46.42924884441983], [-96.70113559254015, 46.43019141402515], [-96.7038734622605, 46.4273188647539], [-96.69934026025432, 46.426959786324865], [-96.7021678709305, 46.42368327588068], [-96.70432232933413, 46.41771385423479], [-96.693370782608, 46.42211236409629], [-96.6922486623893, 46.416098065232504], [-96.69534559875365, 46.416322476329704], [-96.70149463621478, 46.41650196155745], [-96.69799372478127, 46.41264203113977], [-96.68538156340377, 46.41425779420144], [-96.68497760100462, 46.41237269286607], [-96.68973519094013, 46.409051391552424], [-96.68820916502746, 46.40577490000092], [-96.68174594716385, 46.407570188895946], [-96.67245510608632, 46.394329608859586], [-96.67474422500476, 46.3906940597044], [-96.66855033745131, 46.391636630607664], [-96.66886448330739, 46.38988622908208], [-96.6707495806941, 46.389975968256564], [-96.66814635577238, 46.38705852658298], [-96.66890933582282, 46.38310885407285], [-96.66711405841956, 46.37821652209126], [-96.6653635859919, 46.37453608490819], [-96.6578232317957, 46.37440147551593], [-96.65997761076936, 46.37108011307437], [-96.65602788312312, 46.36838708427666], [-96.65194352141232, 46.36416804794935], [-96.6431912790747, 46.36192390571938], [-96.64839771075012, 46.35734582702457], [-96.64359516583266, 46.34998496068365], [-96.62918763107797, 46.35415910111429], [-96.62743721427093, 46.34926681255821], [-96.6168896182294, 46.34751635457798], [-96.618146400434, 46.344284760497686], [-96.61985198102899, 46.34002088160531], [-96.60894526133542, 46.335622331451866], [-96.60616256653496, 46.33117885505408], [-96.60077652664678, 46.33099935190811], [-96.5993851554361, 46.32965279163359], [-96.60602784438504, 46.32687004079578], [-96.60436715371931, 46.32610702994281], [-96.59983395350447, 46.32655585727547], [-96.60109074799098, 46.3192848035264], [-96.59673707690816, 46.316771300650636], [-96.60037255934704, 46.30492214637618], [-96.6031104403976, 46.30178026936605], [-96.59741032982272, 46.29742664672835], [-96.60571374619494, 46.294150162134954], [-96.60158445755786, 46.29239966076579], [-96.59615356937864, 46.29064924324831], [-96.59718585493576, 46.287731845916674], [-96.60234748626577, 46.28656483327569], [-96.59803863761064, 46.28611599745036], [-96.59485192428609, 46.28634044630461], [-96.60028282479365, 46.280236298710264], [-96.59539057770019, 46.27556845527369], [-96.59691658943058, 46.272247071885594], [-96.5992504731216, 46.26344995837709], [-96.60001349075478, 46.261340435917965], [-96.5939093729738, 46.258647478700766], [-96.59310151356655, 46.25541586224035], [-96.59507635850993, 46.25290236797436], [-96.58915180540673, 46.2494912865139], [-96.58390040874893, 46.250164483395004], [-96.58865802353992, 46.24590062421105], [-96.59435820898734, 46.245227358829105], [-96.5986670453571, 46.24181624216921], [-96.5976795721505, 46.2340065121013], [-96.59552519981251, 46.22462590767185], [-96.59579446849713, 46.21977849846335], [-96.59162034041546, 46.2178036962975], [-96.59224875058068, 46.21353976486049], [-96.58874781732342, 46.21214838590876], [-96.59081241512038, 46.20950027853914], [-96.59000455801376, 46.208557697998806], [-96.58596509284385, 46.209500257930834], [-96.5837657841691, 46.20792934611903], [-96.58847848776341, 46.205819860301965], [-96.58861316444214, 46.20429381116484], [-96.58430433749886, 46.20362052967646], [-96.58731154286257, 46.201825186758136], [-96.58372088036712, 46.201241751077625], [-96.58547135070557, 46.197022719269924], [-96.59027380987852, 46.19661872760477], [-96.59103688457903, 46.19540687264105], [-96.58506734178897, 46.1946438869439], [-96.58771550120457, 46.1930729366713], [-96.59009428049377, 46.18984134587667], [-96.58767057857162, 46.18777671105635], [-96.58924155639465, 46.18647509874823], [-96.58744619510954, 46.18607120521522], [-96.59130616354967, 46.1843207544266], [-96.58627924234855, 46.18252540191833], [-96.58924153358143, 46.181268631867724], [-96.58933129984632, 46.17875521261963], [-96.59166527880424, 46.17848593632951], [-96.59269754168496, 46.175209433533766], [-96.59018406431017, 46.174895209894025], [-96.58749105921618, 46.17637635907589], [-96.58623432369208, 46.17547871161135], [-96.58470831144426, 46.17727403086704], [-96.57968142364084, 46.17637640220103], [-96.58228464636866, 46.173818017837434], [-96.57676394023714, 46.17399756005923], [-96.57703331657807, 46.17152900215118], [-96.5825090632627, 46.17143925808893], [-96.58318231545009, 46.169823414578836], [-96.57595611013811, 46.16986828412177], [-96.5764497988852, 46.168072991388755], [-96.58066881490166, 46.167085576920435], [-96.5775269731318, 46.16645717861633], [-96.5780655493986, 46.162597200585495], [-96.57990576266252, 46.16147510707606], [-96.57640492002274, 46.15927584996813], [-96.57986090789267, 46.15034405699801], [-96.57586627626773, 46.14432974554305], [-96.57119845679134, 46.13660978032376], [-96.57048033193844, 46.13418606539766], [-96.56864013990256, 46.13283960348601], [-96.57106380779125, 46.13140334774043], [-96.5686850129086, 46.13041586508877], [-96.56967241114589, 46.12606221267162], [-96.57218587988336, 46.12489524942222], [-96.5678321754279, 46.12215739701097], [-96.56639591080533, 46.11937465002676], [-96.5621319935976, 46.1191951053706], [-96.56024688193457, 46.11659182272027], [-96.56635104576793, 46.115110712280945], [-96.56069580675701, 46.10617894762377], [-96.55867605274369, 46.10110710966022], [-96.55643180447443, 46.09195090574358], [-96.55706019195225, 46.087283098101324], [-96.55517514565642, 46.082749830841486], [-96.55768861481, 46.07094555679381], [-96.55714996768911, 46.06430282555563], [-96.56199735977576, 46.05433875766444], [-96.56639593394009, 46.05074806005312], [-96.57788603895243, 46.02718434520708], [-96.57483399539622, 46.013629610271266], [-96.57564189834177, 46.00694199552872], [-96.57236544050356, 45.986026391806774], [-96.56931330612356, 45.96111610974879], [-96.56527384942498, 45.95559546413891], [-96.5628950427926, 45.94836929632748], [-96.56199733494884, 45.94051467369007], [-96.56478011767179, 45.92462604191837], [-96.56513924247629, 45.91928492274854], [-96.56760774833415, 45.916816318749156], [-96.56913377600291, 45.91614306710256], [-96.57016609513782, 45.9120586927685], [-96.56549828740823, 45.91066729474235], [-96.56464553120117, 45.90981455188229], [-96.56850545065991, 45.90043389759324], [-96.56940313216761, 45.88773197287878], [-96.57151265611472, 45.885936629521204], [-96.57294893402717, 45.86973374668371], [-96.57443000114523, 45.86502100295973], [-96.57407097375307, 45.848144898263854], [-96.58183573880522, 45.82202279450223], [-96.58852337932781, 45.81564937001911], [-96.59826310721596, 45.81017362514457], [-96.6150045476042, 45.792803790319844], [-96.62793093177463, 45.78607132264618], [-96.63174601910194, 45.77875533089252], [-96.63439415814794, 45.776421428211215], [-96.63556105181785, 45.774356757409016], [-96.63973524253299, 45.77117002270137], [-96.64103684231195, 45.76174456177933], [-96.65670114098329, 45.74311798998872], [-96.67694351638505, 45.730460914816256], [-96.7268088177028, 45.71035320602775], [-96.75005833983145, 45.698907938667034], [-96.7620421817451, 45.68687922792595], [-96.82618043312387, 45.65415930708352], [-96.83901703161916, 45.64711261825977], [-96.84844250269302, 45.628665585405656], [-96.85427739249283, 45.61268717356905], [-96.8568356776362, 45.60537120559859], [-96.79911582941367, 45.55420423468778], [-96.78484287106645, 45.541277845645], [-96.76118944107101, 45.5160085915014], [-96.74355030209779, 45.48288471247762], [-96.73138694347868, 45.457031927371595], [-96.71087524227299, 45.4370588586331], [-96.6906328648199, 45.41591884167425], [-96.68057900606158, 45.410532817916895], [-96.65656647373619, 45.40941071932191], [-96.64637792850118, 45.40950049659809], [-96.62788600863125, 45.40873750922082], [-96.61738337717402, 45.407974462206994], [-96.59269753391948, 45.39935687036663], [-96.57070474506864, 45.38966212298953], [-96.54256288723583, 45.38055079979655], [-96.52133311573014, 45.3753891921041], [-96.5063420919049, 45.367310197176394], [-96.48793996047058, 45.35532638885482], [-96.4688645244525, 45.322202528835135], [-96.46558810952227, 45.3163676889876], [-96.4575090958344, 45.307391050164306], [-96.45580353534808, 45.302812919405284], [-96.45311047612498, 45.299760841820856], [-96.45207817679459, 44.38571266740079], [-96.45324512826141, 43.50038981664194], [-95.58452913226883, 43.49989611602819], [-94.54251864599304, 43.50052446555015], [-93.67622634254121, 43.49967171020749], [-92.96406319479881, 43.49958195414836], [-92.00643333561506, 43.50070402759919], [-91.29058978620702, 43.50083867219921], [-91.21769925542826, 43.50074885651305], [-91.2182827435625, 43.51443830188862], [-91.23295961119652, 43.52395356659269], [-91.2392432403552, 43.535892539560315], [-91.24355208906175, 43.54253520062495], [-91.24220556299596, 43.55281354068388], [-91.23282496863612, 43.564842229884114], [-91.23188240944805, 43.58180809181107], [-91.24795063586926, 43.59670937567285], [-91.26509606704718, 43.60999479860199], [-91.26900086879587, 43.616592639985605], [-91.26846227920795, 43.62736465356823], [-91.26240307115157, 43.64177215964674], [-91.2650511272949, 43.64913304168757], [-91.27173879364949, 43.65492299738073], [-91.27281599023054, 43.66959980650244], [-91.27178366710909, 43.674043298184706], [-91.27218760384388, 43.678890690924256], [-91.26796856590816, 43.69931256725417], [-91.2678788271806, 43.71165543582188], [-91.25670286010774, 43.72835208511087], [-91.25544613802091, 43.73934846337209], [-91.25315707404599, 43.74998581291112], [-91.24413557019943, 43.77467162371158], [-91.26271726347002, 43.79343283298461], [-91.26666693250668, 43.80321738337966], [-91.26953946528408, 43.81053338647232], [-91.27649638136596, 43.82853155074233], [-91.27851610980954, 43.838854696806436], [-91.28915351121015, 43.85137714365425], [-91.30059870876167, 43.85846869169804], [-91.31105651394181, 43.86749027977788], [-91.3169811253804, 43.884276577109354], [-91.32811221054308, 43.89343275804511], [-91.33964720981469, 43.89913296800938], [-91.34983568172932, 43.91345074937504], [-91.35809423013036, 43.918208388576346], [-91.36401881622531, 43.93104497309797], [-91.36662202793997, 43.93746326678933], [-91.39117318816292, 43.95725682965461], [-91.40737609283917, 43.96515630199129], [-91.41505108469323, 43.975614081519424], [-91.4251947455667, 43.984321473363885], [-91.43233116854324, 43.996709269517794], [-91.44543711367005, 44.00281335246849], [-91.46523063976942, 44.00923165628105], [-91.47977279477995, 44.00797495514883], [-91.4965591989629, 44.01345071764316], [-91.5071067324402, 44.01897132982803], [-91.53376741435633, 44.021439924335766], [-91.55252861521983, 44.02336987504544], [-91.57277098901726, 44.02687080258664], [-91.58533832589269, 44.02848663243274], [-91.59687331328198, 44.034366338697694], [-91.60733114786393, 44.04733758810721], [-91.62986251121956, 44.05725679232999], [-91.63919826251076, 44.06363021729477], [-91.64642446734719, 44.06331599783382], [-91.65953035848406, 44.074222695191516], [-91.66859682891847, 44.088360889795915], [-91.68417131807446, 44.098190342335805], [-91.6953023450105, 44.09854939368738], [-91.70822877466237, 44.10519215078451], [-91.71060757656286, 44.12049732630149], [-91.72272605319951, 44.130775585791795], [-91.74085893896135, 44.13391741711882], [-91.7540097018677, 44.1355781447288], [-91.77447645035654, 44.1475170826366], [-91.80804920831471, 44.15927651155474], [-91.8172951151475, 44.16421368565566], [-91.83138847037617, 44.17965348310088], [-91.85194503768608, 44.18921362854965], [-91.8674297483264, 44.19756195737662], [-91.87546391481769, 44.201287242788595], [-91.87743873954834, 44.21291205345287], [-91.8926990603592, 44.23108973745495], [-91.89130768592919, 44.238899485592874], [-91.8871784520039, 44.252499088950785], [-91.8967385718771, 44.26542544870343], [-91.89637947760433, 44.27467146384749], [-91.90885701671552, 44.28284021019267], [-91.92218738592948, 44.28782227674165], [-91.92488041302943, 44.29572171028411], [-91.91356980371212, 44.3103985284694], [-91.92384808396716, 44.331403911671046], [-91.92820177574211, 44.33548833244309], [-91.94296838895237, 44.34226565337098], [-91.96361467552332, 44.362104071106415], [-91.97856078093626, 44.36838774745313], [-91.9872681600852, 44.369105897051725], [-92.00975468981225, 44.379788117368264], [-92.02514963376859, 44.38337874222641], [-92.04117302278951, 44.390874293340424], [-92.05647817008469, 44.40272343258537], [-92.06922501327315, 44.4040250545637], [-92.08125378296195, 44.40617944853187], [-92.10163075295372, 44.41223873438789], [-92.1152752944935, 44.41605380112581], [-92.12452126580612, 44.42211302879967], [-92.18547277641275, 44.43176292283062], [-92.22106517899486, 44.440380542190475], [-92.23390183867109, 44.44634999999087], [-92.24907241699873, 44.45954570529249], [-92.27398260182012, 44.471888586466996], [-92.29435963306388, 44.4893033023645], [-92.30297724827864, 44.5036210741074], [-92.30351580478433, 44.519823970217146], [-92.31222315288647, 44.5324361500318], [-92.31778867282051, 44.542938872342305], [-92.33574198679271, 44.55384552019308], [-92.35755527898195, 44.55851333693766], [-92.3827796893985, 44.558199202504724], [-92.40607413716496, 44.559141697598086], [-92.42070606457625, 44.56205914815724], [-92.43111898737091, 44.565784422147345], [-92.4436863275941, 44.562732378486245], [-92.45890172387702, 44.56273240701448], [-92.48318361429875, 44.568477444288646], [-92.49373120455526, 44.56605374932119], [-92.51473654678186, 44.57332487811438], [-92.52066117661211, 44.57529967700717], [-92.5435965535967, 44.566906508481885], [-92.55073300048589, 44.56968932578186], [-92.5499699459208, 44.575793413624126], [-92.55041879557805, 44.58207707644839], [-92.57052653206678, 44.60402498523427], [-92.57748337958854, 44.60460849140324], [-92.58470962923946, 44.59985085426798], [-92.5890184219342, 44.602229652718925], [-92.59045464885546, 44.60568573114357], [-92.60387481942435, 44.61246304623409], [-92.6168011386488, 44.61223867978815], [-92.62290532690125, 44.61677188722723], [-92.62191786607673, 44.62494061232791], [-92.6202123287618, 44.634186581255925], [-92.62505970120358, 44.64217581127285], [-92.63201660762229, 44.64917760815934], [-92.66096632781864, 44.66089216303735], [-92.69830925465627, 44.69082926204065], [-92.73915300011498, 44.718028565301715], [-92.7617741965264, 44.726287095597016], [-92.78111887413661, 44.73544327122091], [-92.79233974436838, 44.73934813006488], [-92.80414402389307, 44.74827987289337], [-92.80836304555011, 44.752229624984274], [-92.80347077584547, 44.772471996129674], [-92.79323740161148, 44.78432115317242], [-92.78461977635253, 44.79406083097701], [-92.7792786816255, 44.814482782411126], [-92.77218707942117, 44.82305549760857], [-92.77245644204993, 44.82817216309026], [-92.76558923937635, 44.83719370868262], [-92.76949414548919, 44.86201414248986], [-92.76338996219884, 44.87413263552465], [-92.77492498753001, 44.892804110688495], [-92.77308480891124, 44.90137678055142], [-92.75872212660404, 44.90896206650962], [-92.75064313529018, 44.9372834164924], [-92.75472752437852, 44.9559548991044], [-92.76069699958667, 44.96497643848717], [-92.7685515958781, 44.96982384879218], [-92.7703469048704, 44.983333707670035], [-92.76926968609685, 44.989303174252285], [-92.77043667588761, 45.00362095399148], [-92.7620435027709, 45.02431211538268], [-92.7703469040385, 45.03378249899983], [-92.79557127842523, 45.0492223743523], [-92.80279751995921, 45.05968014957035], [-92.8008675470242, 45.0694647021358], [-92.78753720840363, 45.08212180537169], [-92.76778855839567, 45.09406077800409], [-92.7437760301758, 45.10972506183646], [-92.7395120796257, 45.11650242747138], [-92.7464690267803, 45.12583813053652], [-92.7511368820307, 45.14024563094279], [-92.75593932941342, 45.150344413011716], [-92.75813865797605, 45.159680123507975], [-92.75239358742529, 45.173908120459544], [-92.76657670496891, 45.185128963442324], [-92.76549948236969, 45.20034436343942], [-92.76217813365253, 45.20707686946562], [-92.75311175455602, 45.21493149122797], [-92.75221401513556, 45.22103555649693], [-92.75760004545653, 45.23306432175595], [-92.75984422890916, 45.25285786231636], [-92.75257313317722, 45.26178962094312], [-92.75382985998088, 45.270945788937304], [-92.76119068560642, 45.28059569971821], [-92.76123560153317, 45.28912352806159], [-92.74507763449844, 45.29639462810542], [-92.73161265651537, 45.30514687330262], [-92.70477244139643, 45.3265112869571], [-92.69893755179602, 45.337866759086964], [-92.70378495162178, 45.3556854469615], [-92.69651388562598, 45.36354005654869], [-92.67824638918258, 45.37368368012698], [-92.67622667791782, 45.38090983443103], [-92.66410815446909, 45.393297673815134], [-92.6504187201566, 45.39850409108409], [-92.6488029430051, 45.405505928114096], [-92.64732180704797, 45.41457232745407], [-92.6501943722518, 45.419868569821375], [-92.64727695477087, 45.443611797089176], [-92.65459288960997, 45.455954695040816], [-92.67963778603881, 45.463988838969755], [-92.68358748606393, 45.47067646177881], [-92.6916216238346, 45.476286839296336], [-92.7074654102601, 45.49890801878912], [-92.72043670560103, 45.509859552143745], [-92.72707942689628, 45.51533531504959], [-92.72707942773293, 45.528171947564154], [-92.72528409292613, 45.53961715071469], [-92.74817453908062, 45.554114491430184], [-92.76051749228812, 45.5602635053425], [-92.77339892938468, 45.56825270496033], [-92.79014041514412, 45.5669062016394], [-92.80495190744257, 45.562238374356944], [-92.82330921411544, 45.56093674755625], [-92.84952099736117, 45.56663693102676], [-92.8716484499209, 45.56780389786268], [-92.88430555903365, 45.577004970084815], [-92.88399139682502, 45.59123295425186], [-92.88645999111026, 45.598683567341865], [-92.88291417064642, 45.61322575771873], [-92.88803088515222, 45.624940331647984], [-92.88794111723587, 45.63898878735183], [-92.88910812078922, 45.64213060269423], [-92.88506860284333, 45.64949147023822], [-92.87672030578685, 45.67713957104882], [-92.87416190736013, 45.69096360376656], [-92.87003265381725, 45.69729217068538], [-92.87128942661838, 45.70249865831392], [-92.86805778674285, 45.71874638381584], [-92.86015839271573, 45.7226512573615], [-92.85127150291463, 45.72363865253395], [-92.84920682052592, 45.72853092587644], [-92.83955690545497, 45.730909783980515], [-92.83246534650739, 45.73297435276424], [-92.82748335847523, 45.73490432921997], [-92.81410810624439, 45.7425344990905], [-92.80495190178252, 45.74792051321428], [-92.80023919314839, 45.752947445556536], [-92.78461977423241, 45.76421312268384], [-92.77649589515579, 45.790021036915554], [-92.76765391027035, 45.79832441275033], [-92.75899143475239, 45.80397973486973], [-92.75836307487087, 45.81223825666573], [-92.76549949622911, 45.8289797459726], [-92.75768978444096, 45.83625079631475], [-92.74916202343067, 45.84073918357273], [-92.74409014986163, 45.84316288466959], [-92.73928766979073, 45.8475613894118], [-92.73628050443669, 45.85837825366931], [-92.73762696998142, 45.862507560648005], [-92.71985318169321, 45.88409641109028], [-92.70768986274992, 45.89491330899649], [-92.69552642738047, 45.89818974354487], [-92.67613685923926, 45.906762480078456], [-92.67622662277846, 45.91201381684888], [-92.65490711565482, 45.92458117249977], [-92.63865930753872, 45.92502993969281], [-92.63915303523383, 45.93400666595333], [-92.63439538631563, 45.93418617116255], [-92.6277078368242, 45.932660147733706], [-92.62110993132336, 45.93526333651137], [-92.61339001187332, 45.93485939752097], [-92.60073293774114, 45.941187980875796], [-92.5878963106968, 45.94253448191438], [-92.57250136061495, 45.94827950073426], [-92.55477246114303, 45.951241786580724], [-92.55136130346953, 45.952094565330285], [-92.54857860481799, 45.96897070885537], [-92.53053546778489, 45.98189708585529], [-92.52205256261641, 45.98418611983578], [-92.49790532117402, 45.978216692129735], [-92.48839009201308, 45.97574808601824], [-92.47128953754991, 45.9731897579296], [-92.46159478417567, 45.97888988765813], [-92.46451215577193, 45.98494917298777], [-92.46033799032163, 45.98858471850063], [-92.45351573766334, 45.99275886360509], [-92.45050858942687, 46.00160083891789], [-92.44418003424546, 46.01008383464143], [-92.44090357676724, 46.01739976190353], [-92.42856065544011, 46.0242220061565], [-92.41563423522159, 46.02700481326643], [-92.40872222650093, 46.026780402023206], [-92.38677434327393, 46.01807305975161], [-92.36460199889899, 46.013360294566596], [-92.3542339045346, 46.01479654400851], [-92.3499700364919, 46.01699583772381], [-92.34835420307972, 46.02422201092473], [-92.34350682061184, 46.03005684832106], [-92.34256426273332, 46.04415024598754], [-92.33856968216669, 46.05011966357207], [-92.3329143312317, 46.062687028969215], [-92.32030217607864, 46.06888089854931], [-92.30037400106282, 46.07287553916975], [-92.29404547189483, 46.07453622491534], [-92.29130755782869, 46.668117700901455], [-92.28735779703779, 46.667175126236316], [-92.28619087460679, 46.66035286466981], [-92.28331830035101, 46.65855754575669], [-92.27438656573871, 46.65743550307042], [-92.2705715144394, 46.650747904502445], [-92.26599334471241, 46.651062055117244], [-92.25661280434493, 46.65873707519911], [-92.24247454738368, 46.649221828574575], [-92.23134345757626, 46.651780199710004], [-92.22348891434989, 46.65263299770233], [-92.21639734135114, 46.64985023565675], [-92.20710650581897, 46.65195975323], [-92.20158583309079, 46.65667244931879], [-92.20549071991718, 46.664751451598114], [-92.18879411352758, 46.678395955422616], [-92.18134350176744, 46.68023621620855], [-92.17586777853212, 46.686474970350254], [-92.17766310314427, 46.69213022633718], [-92.18300419522853, 46.695631158545716], [-92.20190007614167, 46.697246923573324], [-92.20517653000098, 46.698324191770524], [-92.20468281823383, 46.704024340178975], [-92.19328247137197, 46.711250556035566], [-92.191487105599, 46.71623261034462], [-92.18677436685336, 46.717354688033026], [-92.17429681517709, 46.71722003507511], [-92.16792340592991, 46.7197334836596], [-92.14866849904107, 46.71515536529946], [-92.14525733617191, 46.71883584951764], [-92.14153203143375, 46.725298988839135], [-92.14332736428, 46.73158264217046], [-92.14283362387822, 46.73503869517915], [-92.13789646235861, 46.7395270499735], [-92.11330043708038, 46.74886270678887], [-92.089512303508, 46.74922184044875], [-92.03399167742319, 46.70891658019421], [-92.02030225744242, 46.7040242993953], [-91.97133456087747, 46.726869918867244], [-91.79633465472017, 46.79482322269601], [-91.59211564881873, 46.874939882405755], [-91.50019474191042, 46.91331512517305], [-90.6546384571227, 47.309814053213465], [-89.95710721751698, 47.291097734509016], [-89.65746639115433, 47.74989476043089], [-89.48336409389125, 48.01371868815951], [-89.4891989818768, 48.01452663282904], [-89.5642886964188, 48.002946718967024], [-89.5733551428127, 47.99720161747332], [-89.58251131452667, 47.99661819445798], [-89.58749339183706, 48.00155533819921], [-89.59157777280359, 48.00195928594637], [-89.59700861768476, 48.004293231391806], [-89.60782547304926, 48.00658227365584], [-89.60984524310716, 48.01026266346186], [-89.60939636669949, 48.01668097775125], [-89.61114687340806, 48.01784794023233], [-89.61873214263684, 48.01075642233581], [-89.62779850933426, 48.01089108615387], [-89.63821145220194, 48.00869178712653], [-89.63726891979539, 48.00411364680427], [-89.63982727199598, 48.00397901614541], [-89.6419816584383, 48.00604365948273], [-89.64781651910879, 48.005146030706925], [-89.65190086571504, 48.00379945688024], [-89.6570624857003, 48.00994848285748], [-89.66244843309151, 48.01071154679785], [-89.66612890930115, 48.00739014653042], [-89.6738039537885, 48.01151939888511], [-89.68623658921047, 48.010352422349285], [-89.69319346489331, 48.00954453930335], [-89.7025292541109, 48.006312954968635], [-89.70935145792137, 48.010217826541535], [-89.71590441032296, 48.00923040986223], [-89.71711633050256, 48.017174689181964], [-89.72295108806807, 48.01376357553806], [-89.72299597459832, 48.016905408457454], [-89.71967463409817, 48.018162163590944], [-89.72375898155757, 48.02054099370432], [-89.72357948010237, 48.01914958542691], [-89.7323765931343, 48.019329079888415], [-89.73224198201697, 48.020630741416255], [-89.73655075507804, 48.02157325590261], [-89.74256514774397, 48.01982280538319], [-89.74386671693152, 48.02193232615726], [-89.7501054829886, 48.02332376274822], [-89.75329220746906, 48.02224654071647], [-89.75751124665344, 48.02309932159404], [-89.77151485554427, 48.02130395343499], [-89.77438733812956, 48.02090003987049], [-89.77474639808898, 48.022470916814875], [-89.78138916857606, 48.01811723734232], [-89.79521323727784, 48.01717472494215], [-89.79772666131437, 48.01452657603443], [-89.80647889462033, 48.01461638925012], [-89.80827428278671, 48.01717473857135], [-89.82048252487978, 48.01466128719709], [-89.8227715435094, 48.010801262517646], [-89.82932452044147, 48.00236320528118], [-89.83340889311545, 47.999356073187776], [-89.8437320302865, 48.0034404172216], [-89.8441809140098, 48.00186952071515], [-89.84287923716283, 47.99989466844172], [-89.84620067137013, 47.992713323047084], [-89.86895649499307, 47.98934706388367], [-89.87326529254031, 47.9853973393912], [-89.9002401276869, 47.988763574560124], [-89.9063891313435, 47.99262352899999], [-89.91464763559895, 47.99437403658335], [-89.91774455534556, 47.99724655225468], [-89.9215147657419, 47.99693231406811], [-89.9235794108624, 48.00097186817337], [-89.92806775474583, 48.00245302263026], [-89.92573380494821, 48.005998788027156], [-89.93260095994056, 48.01039736227695], [-89.93448604111875, 48.01564866127223], [-89.94076969312113, 48.01542423547684], [-89.94440523418695, 48.01448170534251], [-89.95086847181689, 48.01569355981047], [-89.94983614367305, 48.01331477663502], [-89.95203540566887, 48.01075639860853], [-89.96473742495039, 48.01484079446889], [-89.96882179533011, 48.01519985277208], [-89.97488103805871, 48.02314420771928], [-89.98520416950981, 48.02619627998746], [-89.98883971833222, 48.02579229918928], [-89.99032086709812, 48.02812624611241], [-89.99436036018794, 48.029023900148104], [-89.99638008640007, 48.03921241789252], [-89.9938217959166, 48.049041842785556], [-90.0001054332585, 48.05981384104821], [-90.0100246201736, 48.06883537688059], [-90.01505157775352, 48.067174680472014], [-90.01882172644903, 48.07202211230032], [-90.02357942531019, 48.08472404327206], [-90.03919875015399, 48.08988563137744], [-90.04220593548119, 48.08988562951495], [-90.07389357248128, 48.10115133481096], [-90.09364221509834, 48.104517594536105], [-90.11626337921297, 48.104293182459514], [-90.12259191800251, 48.1055948127694], [-90.13340879661037, 48.11187847903449], [-90.14431540825916, 48.11250679590234], [-90.15073377836455, 48.11026268564772], [-90.16424362342794, 48.10972406957107], [-90.17658651938827, 48.112461951988855], [-90.18866012682278, 48.10792870636569], [-90.20490789081995, 48.10712080386121], [-90.21707124712077, 48.106672029233906], [-90.22470137901094, 48.10815312572867], [-90.2538755560571, 48.10222854149767], [-90.27465649990324, 48.10326084128547], [-90.28933335194553, 48.09899692604174], [-90.29494378060659, 48.10016391935248], [-90.30692758758153, 48.10528060532111], [-90.3288755294759, 48.10267734263415], [-90.33717895774319, 48.09975994049156], [-90.33843564882154, 48.09621415216321], [-90.34669420018507, 48.09410468120193], [-90.36765471806025, 48.09459836158766], [-90.37353441158766, 48.09388027661258], [-90.3733099705648, 48.09105264554898], [-90.3839024577198, 48.09450858720141], [-90.38821126483073, 48.09863785153607], [-90.403202224552, 48.1051010633306], [-90.41478213341091, 48.10411366690255], [-90.43843562660972, 48.09872766285552], [-90.45261876550975, 48.10514597204706], [-90.4632112266778, 48.10734522054886], [-90.46769954171494, 48.108826417372285], [-90.47102088961084, 48.106088483157386], [-90.47761872594623, 48.105460160344414], [-90.48336380012498, 48.10034344067518], [-90.48987185998267, 48.098996971433785], [-90.49377675321445, 48.101330906165266], [-90.49615551297804, 48.09877250550517], [-90.5081393543664, 48.09922135165764], [-90.51087726977809, 48.097381134162646], [-90.51707114855826, 48.099400880078164], [-90.55845354241842, 48.09661812943353], [-90.56783417938712, 48.10191438931472], [-90.56971927808831, 48.10685155855286], [-90.55589517644911, 48.11708487859438], [-90.5605181365373, 48.121842523227734], [-90.56769950216596, 48.12215673879682], [-90.57734940084387, 48.12157321775414], [-90.57990771841271, 48.12390720276905], [-90.59058994518179, 48.119777945297095], [-90.59144274498564, 48.11753374428394], [-90.6063888645054, 48.1159628688409], [-90.62034758037119, 48.111878468971966], [-90.62901003281777, 48.11066660938581], [-90.64157738972993, 48.103530144617324], [-90.68659535291688, 48.10052294582153], [-90.70795978583496, 48.09590000019779], [-90.74153246446642, 48.09459837408723], [-90.75158631143302, 48.09096286223629], [-90.76164020455413, 48.09845835990736], [-90.76729549635584, 48.112282435856685], [-90.7688663786886, 48.11659122763989], [-90.77443190108605, 48.11937393981365], [-90.77896514128551, 48.1248945924409], [-90.78488973933123, 48.12767738755266], [-90.7899167034842, 48.1299215486555], [-90.78758274300444, 48.132883842804645], [-90.78376762668162, 48.13279404805434], [-90.78260064891987, 48.135801278636045], [-90.7961105446116, 48.135801229237046], [-90.79750191285252, 48.13813518329534], [-90.7843511514634, 48.146124438417516], [-90.7788753792944, 48.14706695719929], [-90.77654142488514, 48.1623273066391], [-90.78080531582164, 48.16457141096259], [-90.78821112410384, 48.160442140041425], [-90.793821498311, 48.16116028363602], [-90.79660429755282, 48.15936494929491], [-90.80122726234855, 48.16470609256921], [-90.80526678062968, 48.1781710643528], [-90.81765450782804, 48.17956246895109], [-90.82111057693979, 48.18472399527354], [-90.82573351115995, 48.18355708171662], [-90.82461140966414, 48.176869473146326], [-90.83282507688962, 48.17399692384618], [-90.83596689657305, 48.178530132798166], [-90.83462043247671, 48.197919737449716], [-90.83874971585323, 48.22709383994294], [-90.83915360738088, 48.239526504348994], [-90.84287896431888, 48.24118721570143], [-90.84364199663582, 48.24356600401723], [-90.8473672889833, 48.24441883568854], [-90.86774425435524, 48.23809026718407], [-90.87510517386511, 48.23777609513383], [-90.88147855712103, 48.24046906096351], [-90.88547319977789, 48.245765292019925], [-90.90683765731974, 48.23732727459002], [-90.91496154383377, 48.23059475303492], [-90.92510514642711, 48.229876610979346], [-90.97694532182972, 48.21941879573687], [-91.0039201561008, 48.201779661340765], [-91.00333668129976, 48.20056781511038], [-91.01558982387243, 48.19585510244024], [-91.0235790268475, 48.19105255588089], [-91.03251086949557, 48.18858401764215], [-91.04386629738302, 48.18912260111804], [-91.05553598430585, 48.18804542612905], [-91.05926129470497, 48.18530750576021], [-91.06352516755382, 48.18423033090503], [-91.06554497169866, 48.18122312366663], [-91.07564369603179, 48.17920340957601], [-91.08089500428048, 48.17974200485813], [-91.08233129939275, 48.18072942676275], [-91.0901858829237, 48.17561273852393], [-91.09225051768784, 48.17309929714988], [-91.11374960084356, 48.166546317207384], [-91.12003325285129, 48.16039731501664], [-91.14292371941134, 48.1543829352222], [-91.13789680957555, 48.151016669772346], [-91.13771726416654, 48.149131608681024], [-91.15611939678826, 48.14046910753631], [-91.18322895220994, 48.12224651108002], [-91.19018586707928, 48.1253434223594], [-91.21626299657727, 48.102183646412556], [-91.23493447578869, 48.095944883359536], [-91.25010500554721, 48.084095705460356], [-91.26725046578309, 48.07853013816968], [-91.27627194566594, 48.078440420010914], [-91.29359693325017, 48.073772515049335], [-91.32676566044654, 48.071797659235976], [-91.33390209157541, 48.06932912575583], [-91.33659508585784, 48.06964328021491], [-91.34014094013067, 48.07323395757656], [-91.35405473063965, 48.07054094128502], [-91.36514089013312, 48.06699517317893], [-91.37066156554239, 48.06937399066266], [-91.38210679839757, 48.06340451808122], [-91.39112828634076, 48.05707592282977], [-91.41388414682564, 48.05353017869116], [-91.43165790340406, 48.04868275225916], [-91.43825575483204, 48.04958044738621], [-91.44171181088657, 48.0566271311183], [-91.44700797513686, 48.06412262167329], [-91.44723244150005, 48.0677133203581], [-91.45131682764074, 48.068655867307605], [-91.46549989494464, 48.06677075275649], [-91.48807626300032, 48.068117283098125], [-91.54251961314152, 48.05326086791226], [-91.56693616500777, 48.043700707674915], [-91.57564354301373, 48.048772566265725], [-91.57371356695006, 48.05990356724546], [-91.5745663342679, 48.07063072528253], [-91.56944961796977, 48.09356608593319], [-91.5530672233598, 48.10317113013997], [-91.55926110591558, 48.10828782169083], [-91.57716958066761, 48.106088489252265], [-91.58897383646632, 48.10218368270303], [-91.61527546091573, 48.10191437382689], [-91.6410384284175, 48.09769532414339], [-91.65329160529681, 48.10936496549177], [-91.65190025325019, 48.113314689849965], [-91.65324673923301, 48.11412259001215], [-91.66267225072602, 48.11147447978299], [-91.66567935392605, 48.10725547204078], [-91.67151418603301, 48.10837753776037], [-91.6768553020623, 48.10725544675063], [-91.68740290308422, 48.11210290323057], [-91.68286968053349, 48.12157320992954], [-91.6919809670093, 48.11861091762749], [-91.6925195939578, 48.11668094820582], [-91.70351597474097, 48.11353911744238], [-91.71195406889002, 48.11470610240944], [-91.70809410593083, 48.12296464474354], [-91.70414433529118, 48.124894633714355], [-91.69974580723272, 48.13530751587897], [-91.69871351402007, 48.14401489257157], [-91.70418923783853, 48.14634885417198], [-91.70840828086425, 48.152901751919835], [-91.70526643322617, 48.162372123046815], [-91.70540110700054, 48.170810186406825], [-91.70939572100092, 48.17269533511762], [-91.72362373771685, 48.169643224332034], [-91.72142444464419, 48.18023573538336], [-91.71159499349358, 48.189077743805626], [-91.71146034663374, 48.195361340727985], [-91.71491635237126, 48.199131546595844], [-91.74229516146528, 48.204517535156164], [-91.74193608032762, 48.19913153620067], [-91.75010482831442, 48.1993110816829], [-91.75517664627479, 48.20375453169833], [-91.75751058171905, 48.205639609781144], [-91.76168471069428, 48.20370967798651], [-91.76630771911968, 48.20052297133264], [-91.78174757489751, 48.20002920431691], [-91.7861461481121, 48.196393649805756], [-91.78955725522675, 48.19751578790331], [-91.79180147090611, 48.20249778512401], [-91.80163083966443, 48.203799458176675], [-91.81446750458608, 48.20864685652019], [-91.81576908987273, 48.2117437545797], [-91.8343956528497, 48.20981376682452], [-91.86451239181632, 48.20747987584196], [-91.86837231856987, 48.219373956840265], [-91.88524846748311, 48.22790172341684], [-91.89323767368309, 48.2374618602139], [-91.90719635503463, 48.23795560993909], [-91.91751952350297, 48.238269786134296], [-91.93960207335189, 48.232928656571495], [-91.94157697537895, 48.23068448870489], [-91.94646926003372, 48.23095383684744], [-91.95338129551781, 48.232973584251894], [-91.95840822850013, 48.23310823942055], [-91.95984446085939, 48.236968166247415], [-91.9574207523556, 48.23880840133953], [-91.95831845584365, 48.24379043345805], [-91.94880319725476, 48.24531643495795], [-91.95436872814216, 48.25043318196839], [-91.95638841793404, 48.25222851075613], [-91.96379421899837, 48.25353010265684], [-91.9717833848391, 48.25299152342989], [-91.97254641383873, 48.25038828629261], [-91.9706165028674, 48.248144145330464], [-91.97546383738575, 48.24477790068872], [-91.98224119168567, 48.24989456285508], [-91.98901860355944, 48.25958934892557], [-92.00656798857958, 48.26542417298427], [-92.00724122888951, 48.28037032755782], [-92.0120437757832, 48.28728236190956], [-92.01298630573089, 48.29738112375501], [-92.0001047369677, 48.32134872981914], [-92.03084984780017, 48.32583709049892], [-92.03771695975956, 48.33319793739744], [-92.04655899103814, 48.33472395830612], [-92.04763617441756, 48.343745539326534], [-92.04543690820627, 48.34688736014253], [-92.04866849433073, 48.348862221185904], [-92.05522148416775, 48.35923026422721], [-92.0779324299297, 48.35824286327105], [-92.08349791534845, 48.35388917650968], [-92.1435966250078, 48.35613329471998], [-92.14516757232494, 48.36564860045542], [-92.16199883955002, 48.3633146347472], [-92.17649607657312, 48.35752470292899], [-92.17887491525855, 48.35519074706903], [-92.17842611762718, 48.35186941022439], [-92.19305804268903, 48.34872754194775], [-92.19548176835708, 48.350522931542045], [-92.20383002463768, 48.35186942185285], [-92.20773486913558, 48.34782989901535], [-92.20679231679672, 48.34558576488415], [-92.21698079049268, 48.3450919868682], [-92.22281564591886, 48.34922131190775], [-92.26249249875329, 48.35483173031362], [-92.28897366449502, 48.3429824810193], [-92.29673839951072, 48.32381735539408], [-92.30454809480352, 48.3229645983962], [-92.30625372753994, 48.31636675157549], [-92.29453915726559, 48.306447496306404], [-92.3014063260642, 48.28853907198565], [-92.29503289544793, 48.27660012013314], [-92.29310288421333, 48.276600136539884], [-92.29386588471223, 48.270271571601526], [-92.28785155673192, 48.26407767688472], [-92.27371331907129, 48.256761688441266], [-92.26976358472805, 48.24823389437948], [-92.28071512056495, 48.24428411846733], [-92.31608312314194, 48.23988556360504], [-92.33358758133879, 48.233736566053686], [-92.33560740314279, 48.23517287879313], [-92.34081385040665, 48.23297354414861], [-92.3431029052082, 48.23185145500786], [-92.35329140365562, 48.23001126244905], [-92.36334520016732, 48.22265043285862], [-92.3680131308538, 48.22381739030877], [-92.36769894667376, 48.22112434702399], [-92.3699430944171, 48.22013698047416], [-92.37205263015842, 48.223682756098384], [-92.37865041196847, 48.231133354941825], [-92.3804009040073, 48.236115412190664], [-92.3845301284362, 48.2422644457841], [-92.38390175673109, 48.2446880809879], [-92.38717821893016, 48.24459831269474], [-92.3870435729298, 48.24926616816212], [-92.38484432950935, 48.24926617693794], [-92.38672945966957, 48.25168992995768], [-92.39216030989013, 48.251106382109114], [-92.3917563773213, 48.25281195521109], [-92.38960197298357, 48.253844277784324], [-92.39346190248467, 48.2574798768], [-92.3976360267591, 48.265558799007586], [-92.4188209583384, 48.297425979977135], [-92.4289197352869, 48.30577424842189], [-92.43201667814526, 48.30505610430265], [-92.45369533705804, 48.329517508257325], [-92.4702123594049, 48.35263242511305], [-92.47676532583232, 48.371752667824865], [-92.45638830675861, 48.401151236466504], [-92.45634338088385, 48.414212313450186], [-92.4755983475865, 48.418790354732565], [-92.48322851357533, 48.42924821313227], [-92.48919793905154, 48.43032541267803], [-92.50665757009648, 48.44733613167325], [-92.53699872101829, 48.447695214862335], [-92.57564316821107, 48.44082809081844], [-92.65602918623284, 48.436698805704204], [-92.66325532941916, 48.440199695278025], [-92.68798605078644, 48.44388017383155], [-92.71258212583267, 48.46300039233387], [-92.70863234343413, 48.47036124735519], [-92.70926076840713, 48.47309912982818], [-92.70082266232788, 48.48647439549494], [-92.69880292092603, 48.49486756768566], [-92.68484426207546, 48.49760541313916], [-92.66101121209398, 48.49684242683032], [-92.65405433752599, 48.501644923882004], [-92.6366844668518, 48.4994456425705], [-92.62725899461489, 48.50339538591056], [-92.63111896265632, 48.50806321929585], [-92.62514946894528, 48.51304527692121], [-92.6348891270594, 48.542713178789626], [-92.65786939888739, 48.5462589183283], [-92.72820152089926, 48.539346859451506], [-92.89467359947179, 48.59491243541604], [-92.90993396540597, 48.59630377206763], [-92.9295927811816, 48.60689627564236], [-92.94983517272286, 48.6082876222575], [-92.95010450168607, 48.63041509885459], [-92.95463769580974, 48.631447398584626], [-92.98466461799808, 48.62381724992956], [-93.09575072324978, 48.62740787247926], [-93.17905409332462, 48.62381724520015], [-93.2074203933618, 48.64239892681061], [-93.2548619683096, 48.642758004779154], [-93.34754602929095, 48.62659999641841], [-93.35508636851633, 48.61142942468449], [-93.36213302291475, 48.61385315277711], [-93.37115457472325, 48.60505603434197], [-93.39018514045972, 48.603889065506806], [-93.39907205047709, 48.60393395872631], [-93.40526592237751, 48.6093199727052], [-93.42990685071634, 48.598592803241104], [-93.43847953311926, 48.593386404882764], [-93.46329999416706, 48.59199498879974], [-93.46599297705161, 48.5873720480656], [-93.45899118095842, 48.570091915963786], [-93.45665729947974, 48.56183339062221], [-93.46078657359992, 48.55056771545202], [-93.46940408783725, 48.54522657434892], [-93.50239331553936, 48.5401996672848], [-93.51868601258754, 48.53400580449542], [-93.53690855585482, 48.53108836189247], [-93.55082238470754, 48.52866464631511], [-93.56792290992952, 48.528081188578255], [-93.58237532789124, 48.527093725355336], [-93.59193548706895, 48.52893399646191], [-93.60091214411524, 48.525343287175595], [-93.61060693475099, 48.521662871263594], [-93.62232145183661, 48.52651024641753], [-93.62797681058714, 48.531267914073595], [-93.6343053216502, 48.528709563618975], [-93.64305756686221, 48.518296618658525], [-93.66235736526326, 48.515693376305926], [-93.68259977450195, 48.51533433721038], [-93.6965584257799, 48.515154799887604], [-93.7115494377401, 48.51798242354046], [-93.74180082640348, 48.51730923490329], [-93.7569713502778, 48.51546896569146], [-93.79444888581097, 48.516007551924815], [-93.817070122253, 48.52817099149743], [-93.81841655328446, 48.534409743951244], [-93.8112352075599, 48.542398955709565], [-93.81163921701024, 48.5519141958862], [-93.80540044512566, 48.568386420882604], [-93.80800362566181, 48.58028043718142], [-93.81855120887671, 48.595316333497834], [-93.82268052889745, 48.60905064417933], [-93.82954762860099, 48.616321716572045], [-93.83740220665301, 48.62709375927998], [-93.85163016585481, 48.630100883366794], [-93.89247399632869, 48.631492289132574], [-93.91383841445686, 48.63454434844992], [-93.91796775975352, 48.63207580392984], [-93.9400053766543, 48.63207579584997], [-93.95436807455141, 48.63369160762187], [-93.9668905142667, 48.63746175538456], [-93.99005024782541, 48.63966102581479], [-94.0069263702698, 48.64311704626383], [-94.03560683982467, 48.64091779736576], [-94.04319209392898, 48.643341509752965], [-94.06424237176778, 48.6436108126684], [-94.06576837779691, 48.64598962940051], [-94.09121723898137, 48.643521006521794], [-94.09992452587264, 48.64572029314364], [-94.11500534658757, 48.64419422788008], [-94.15836262326906, 48.645944738039404], [-94.18861392258367, 48.64993929013637], [-94.19952059849729, 48.65088186389932], [-94.22434103885205, 48.64949049280815], [-94.23358695479983, 48.652318131144746], [-94.24687245328681, 48.65420324611858], [-94.25463722619976, 48.66133965274697], [-94.25122614394623, 48.683467119651695], [-94.2633446059282, 48.69823375864875], [-94.27452054754771, 48.699804648012865], [-94.28210583421559, 48.70501115393304], [-94.2992961497016, 48.70887107088483], [-94.3085870117615, 48.710172715730785], [-94.3331830490855, 48.70393391417619], [-94.3530663510806, 48.70397883039183], [-94.37335358969219, 48.70815297594295], [-94.38408064450269, 48.71174362223892], [-94.41814710860393, 48.71035225798627], [-94.43870359127162, 48.69486750181374], [-94.4524379309415, 48.6923988866529], [-94.4729944965916, 48.69675258133384], [-94.50284185602303, 48.69863767992666], [-94.5199424070953, 48.70097159283884], [-94.53776104725834, 48.7024079141798], [-94.5490716234414, 48.71466102904831], [-94.55513085235364, 48.71605243836163], [-94.56855100327475, 48.715468908116684], [-94.59153118636924, 48.718745419631084], [-94.60037323707937, 48.72758738956491], [-94.61410755278276, 48.7339608184031], [-94.61904464551576, 48.737282230459975], [-94.6408130666399, 48.74114217201352], [-94.64539120930053, 48.74405956320837], [-94.64628881176642, 48.74998414160418], [-94.6519890006597, 48.75586388416593], [-94.67299438838435, 48.76937374644808], [-94.69094774053708, 48.77799130731716], [-94.69435884215974, 48.78216552279704], [-94.6952564684511, 48.808826186938475], [-94.70427806326077, 48.8241313996538], [-94.70028346335494, 48.833152870230826], [-94.68569634251257, 48.840109819143315], [-94.69310212065415, 48.85344013475649], [-94.69126190427968, 48.86609720578952], [-94.69242883995214, 48.86901468250666], [-94.6842600904579, 48.87265016470463], [-94.68434987268606, 48.88396082142265], [-94.75028346539852, 49.099265960290836], [-94.77321880089342, 49.120720152574805], [-94.7980840770486, 49.19787449012894], [-94.79745576679353, 49.21434665356302], [-94.82555265986674, 49.294373554747025], [-94.8242959254826, 49.30882600123075], [-94.81648630684099, 49.32098937411268], [-94.84296740863161, 49.32408633916659], [-94.85427803094491, 49.32408629103283], [-94.87847011599128, 49.33319762414185], [-94.90930491370163, 49.350118629480455], [-94.95741977327702, 49.37004681201227], [-94.97429589963157, 49.36753332042782], [-94.98888300710934, 49.36883497665241], [-95.01437664452516, 49.35635737854058], [-95.0493407633463, 49.35299112459424], [-95.05903557432698, 49.353305347198656], [-95.10311099421016, 49.36349386385967], [-95.1031558621289, 49.36506476361383], [-95.11585777533267, 49.366500995379035], [-95.129816540453, 49.37125867156325], [-95.14180038071613, 49.37830530486774], [-95.14530125732297, 49.3782604320855], [-95.14678235687542, 49.38028020448768], [-95.14974469011685, 49.38054948731104], [-95.15023839628088, 49.38297321509212], [-95.15333538587439, 49.3843645900363], [-95.15369439550568, 48.99890686218985], [-95.86047153418919, 48.99975967344773], [-96.80131507402858, 48.99998405902268], [-97.22959141118147, 49.00016365022892], [-97.23416949328173, 48.99616902942026], [-97.22653932507689, 48.993206715345124], [-97.23762556693534, 48.98512773023056]]]}]}}]}
