{
"type": "FeatureCollection",
"name": "site_humaita",
"crs": { "type": "name", "properties": { "name": "urn:ogc:def:crs:OGC:1.3:CRS84" } },
"features": [
{ "type": "Feature", "properties": { "name": "Humaitá" }, "geometry": { "type": "Polygon", "coordinates": [ [ [ -51.190849499999956, -29.976813099999958 ], [ -51.19100549999996, -29.976769399999966 ], [ -51.190392, -29.974889699999949 ], [ -51.19013659999996, -29.974107299999957 ], [ -51.190103499999964, -29.974005899999952 ], [ -51.189223499999969, -29.97131 ], [ -51.189243, -29.970987699999966 ], [ -51.189246399999945, -29.97093179999996 ], [ -51.189249099999984, -29.970886299999961 ], [ -51.189255099999968, -29.970784699999967 ], [ -51.189261199999976, -29.970681199999945 ], [ -51.189267799999982, -29.970568799999967 ], [ -51.189273299999968, -29.970475299999976 ], [ -51.189395799999943, -29.968397699999969 ], [ -51.187565499999948, -29.968200699999954 ], [ -51.185772899999961, -29.968518599999982 ], [ -51.183373699999947, -29.968934399999966 ], [ -51.180893, -29.968472799999972 ], [ -51.177317099999982, -29.967813799999931 ], [ -51.176980499999956, -29.967745199999968 ], [ -51.176570199999958, -29.967742899999962 ], [ -51.17647, -29.967733899999928 ], [ -51.176362199999971, -29.967724199999964 ], [ -51.176346899999942, -29.968155099999933 ], [ -51.176342499999976, -29.96955939999998 ], [ -51.176343599999939, -29.969788199999982 ], [ -51.176356799999951, -29.970001099999934 ], [ -51.176389699999959, -29.970260199999984 ], [ -51.176433599999939, -29.970451099999934 ], [ -51.176540099999954, -29.970817199999942 ], [ -51.17682979999995, -29.971870799999976 ], [ -51.17738079999998, -29.973265899999944 ], [ -51.177533299999936, -29.97374039999994 ], [ -51.17756849999995, -29.973849099999939 ], [ -51.17762769999996, -29.97400609999994 ], [ -51.177829699999961, -29.974504299999978 ], [ -51.178113899999971, -29.975180399999942 ], [ -51.178151299999968, -29.975280299999952 ], [ -51.178252199999974, -29.975566699999945 ], [ -51.178455299999939, -29.976222 ], [ -51.178658299999938, -29.976891499999965 ], [ -51.179197199999976, -29.978642 ], [ -51.179386, -29.97926979999994 ], [ -51.179538499999978, -29.979786799999943 ], [ -51.179714099999956, -29.980365199999937 ], [ -51.179976499999952, -29.981215799999973 ], [ -51.180280499999981, -29.982193699999982 ], [ -51.180606399999931, -29.983274799999947 ], [ -51.180867699999965, -29.984117699999956 ], [ -51.180958799999985, -29.984416199999941 ], [ -51.181031899999937, -29.98465989999994 ], [ -51.181162, -29.98519669999996 ], [ -51.18133, -29.985979699999973 ], [ -51.181457599999931, -29.986615 ], [ -51.181557299999952, -29.987064699999962 ], [ -51.181942299999946, -29.987744899999939 ], [ -51.182212799999945, -29.98814619999996 ], [ -51.182437199999981, -29.988572599999941 ], [ -51.184584599999937, -29.990933 ], [ -51.185301899999956, -29.991709699999944 ], [ -51.187002099999972, -29.99352609999994 ], [ -51.188073899999949, -29.994671199999971 ], [ -51.188762199999985, -29.995296899999971 ], [ -51.189291799999978, -29.995778399999949 ], [ -51.189491799999985, -29.995935499999973 ], [ -51.18973109999996, -29.99616409999993 ], [ -51.19053109999993, -29.996635599999934 ], [ -51.191361899999947, -29.996964499999933 ], [ -51.192833299999961, -29.997302199999979 ], [ -51.196359099999938, -29.997486799999933 ], [ -51.197064199999943, -29.997528299999942 ], [ -51.197627599999976, -29.997566499999948 ], [ -51.197481399999958, -29.99712169999998 ], [ -51.199540399999933, -29.99722 ], [ -51.199119699999983, -29.995795499999929 ], [ -51.198892399999977, -29.995099699999969 ], [ -51.198343099999931, -29.993276299999934 ], [ -51.196371099999965, -29.993731299999979 ], [ -51.195896499999947, -29.992112299999974 ], [ -51.195693799999958, -29.991749699999957 ], [ -51.195583099999965, -29.991446599999961 ], [ -51.195124799999974, -29.99005619999997 ], [ -51.194922099999985, -29.989426599999945 ], [ -51.194689699999969, -29.988678599999957 ], [ -51.194584099999986, -29.988338599999963 ], [ -51.194506899999965, -29.988133499999947 ], [ -51.194254599999965, -29.987427899999943 ], [ -51.194089899999938, -29.986873699999933 ], [ -51.193805099999963, -29.985961499999974 ], [ -51.193594299999972, -29.985331599999938 ], [ -51.193119699999954, -29.983835799999952 ], [ -51.192912299999932, -29.983186899999964 ], [ -51.192649099999983, -29.982345099999975 ], [ -51.192438899999956, -29.981699099999958 ], [ -51.192129199999954, -29.980736299999933 ], [ -51.191889899999978, -29.979980599999976 ], [ -51.191523199999949, -29.978823099999943 ], [ -51.191210299999966, -29.977907399999935 ], [ -51.190849499999956, -29.976813099999958 ] ] ] } }
]
}
